{"ref":"10066","extra":{"discussion":null,"osmId":1803055606},"osm":{"lat":31.526657,"lon":34.600787,"tags":{"name:ar":"مناحم بيچن-مكتبة عامة","ref":"10066","name":"ספריה ציבורית","description":"רחוב:יצחק שמיר עיר: שדרות רציף: קומה:","name:en":"Menachem Begin - Public Library","source":"israel_gtfs","gtfs:verified":"no","highway":"bus_stop","name:he":"ספריה ציבורית"}},"gtfs":{"lat":31.526657,"lon":34.600787,"tags":{"ref":"10066","name:he":"מנחם בגין-ספריה ציבורית","description":"רחוב:יצחק שמיר עיר: שדרות רציף: קומה:","name:en":"Menachem Begin - Public Library","name:ar":"مناحم بيچن-مكتبة عامة"}}}
{"ref":"10184","extra":{"discussion":null,"osmId":1803056414},"osm":{"lat":31.059706,"lon":35.023954,"tags":{"name:ar":"تفرّع ديمونا","ref":"10184","name":"מסעף דימונה/יציאה דרומית","description":"רחוב:25 עיר: דימונה רציף: קומה:","name:en":"Dimona Intersection","source":"israel_gtfs","gtfs:verified":"no","highway":"bus_stop","name:he":"מסעף דימונה/יציאה דרומית"}},"gtfs":{"lat":31.059706,"lon":35.023954,"tags":{"ref":"10184","name:he":"מסעף דימונה","description":"רחוב:25 עיר: דימונה רציף: קומה:","name:en":"Dimona Intersection","name:ar":"تفرّع ديمونا"}}}
{"ref":"1042","extra":{"discussion":null,"osmId":1803067168},"osm":{"lat":31.761203,"lon":35.216655,"tags":{"note":"#14, 34, 77","name:ar":"عيمِك رفَئيم/عوزَيَا","ref":"1042","name":"עמק רפאים/עוזיה","description":"רחוב:עמק רפאים 60 עיר: ירושלים רציף: קומה:","source":"israel_gtfs","gtfs:verified":"no","highway":"bus_stop","name:he":"עמק רפאים/עוזיה"}},"gtfs":{"lat":31.761203,"lon":35.216655,"tags":{"ref":"1042","name:he":"עמק רפאים/עוזיה","description":"רחוב:עמק רפאים 60 עיר: ירושלים רציף: קומה:","name:en":"Emek Refa'im/Uzya","name:ar":"عيمِك رفَئيم/عوزَيَا"}}}
{"ref":"11190","extra":{"discussion":null,"osmId":1802982645},"osm":{"lat":31.746619,"lon":34.796202,"tags":{"ref":"11190","name":"'כפר חריף א","description":"רחוב: עיר: כפר הרי''ף רציף: קומה:","source":"israel_gtfs","gtfs:verified":"no","highway":"bus_stop","name:he":"'כפר חריף א"}},"gtfs":{"lat":31.746619,"lon":34.796202,"tags":{"ref":"11190","name:he":"'כפר הרי''ף א","description":"רחוב: עיר: כפר הרי''ף רציף: קומה:"}}}
{"ref":"11219","extra":{"discussion":null,"osmId":1803080725},"osm":{"lat":31.731398,"lon":34.7525164,"tags":{"name:ar":"مناحِم بيچِن/شاعَر هَعير","ref":"11219","name":"מנחם בגין/שער העיר","description":"רחוב:שדרות מנחם בגין 11 עיר: קרית מלאכי רציף: קומה:","name:en":"Menachem Begin/Sha'ar Ha'Ir","source":"israel_gtfs","gtfs:verified":"no","highway":"bus_stop","name:he":"מנחם בגין/שער העיר"}},"gtfs":{"lat":31.731471,"lon":34.752613,"tags":{"ref":"11219","name:he":"מנחם בגין/שער העיר","description":"רחוב:שדרות מנחם בגין 11 עיר: קרית מלאכי רציף: קומה:","name:en":"Menachem Begin/Sha'ar Ha'Ir","name:ar":"مناحِم بيچِن/شاعَر هَعير"}}}
{"ref":"11323","extra":{"discussion":null,"osmId":1803054727},"osm":{"lat":31.668689,"lon":34.573287,"tags":{"name:ar":"الكُلّيّة الأكاديمية أشكلون","ref":"11323","name":"מכללה אדמית אשקלון","description":"רחוב:אלי כהן 25 עיר: אשקלון רציף: קומה:","name:en":"Ashkelon Academic College","source":"israel_gtfs","gtfs:verified":"no","highway":"bus_stop","name:he":"מכללה אדמית אשקלון"}},"gtfs":{"lat":31.668689,"lon":34.573287,"tags":{"ref":"11323","name:he":"מכללה אקדמית אשקלון","description":"רחוב:אלי כהן 25 עיר: אשקלון רציף: קומה:","name:en":"Ashkelon Academic College","name:ar":"الكُلّيّة الأكاديمية أشكلون"}}}
{"ref":"11451","extra":{"discussion":null,"osmId":5210728162},"osm":{"lat":31.425936,"lon":34.604773,"tags":{"name:ar":"سكرتارية بيت هچدي","ref":"11451","name":"מזכירות בית הגדי","description":"רחוב:בננות עיר: בית הגדי רציף: קומה:","name:en":"Beit HaGadi Office","source":"israel_gtfs","gtfs:verified":"no","highway":"bus_stop","name:he":"מזכירות בית הגדי"}},"gtfs":{"lat":31.425936,"lon":34.604773,"tags":{"ref":"11451","name:he":"מזכירות בית הגדי","description":"רחוב:בננות עיר: בית הגדי רציף: קומה:","name:en":"Bet HaGadi Office","name:ar":"سكرتارية بيت هچدي"}}}
{"ref":"11587","extra":{"discussion":null,"osmId":5210727553},"osm":{"lat":31.267078,"lon":34.7562223,"tags":{"name:ar":"بيرتس سمولنسكين/درويانوڤ","ref":"11587","name":"פרץ סמולנסקין/דרויאנוב","description":"רחוב:פרץ סמולנסקין 5 עיר: באר שבע רציף: קומה:","name:en":"Peretz Smolenskin/Drujanow","source":"israel_gtfs","gtfs:verified":"no","highway":"bus_stop","name:he":"פרץ סמולנסקין/דרויאנוב"}},"gtfs":{"lat":31.267062,"lon":34.756292,"tags":{"ref":"11587","name:he":"פרץ סמולנסקין/דרויאנוב","description":"רחוב:פרץ סמולנסקין 5 עיר: באר שבע רציף: קומה:","name:en":"Peretz Smolenskin/Drujanow","name:ar":"بيرتس سمولنسكين/درويانوڤ"}}}
{"ref":"11783","extra":{"discussion":null,"osmId":5210727325},"osm":{"lat":31.2197626,"lon":34.8124831,"tags":{"name:ar":"هخشرات هيشوڤ/هبونيم","ref":"11783","name":"הכשרת הישוב/הבונים","description":"רחוב:הכשרת היישוב עיר: באר שבע רציף: קומה:","name:en":"Hakhsharat HaYeshuv/HaBonim","source":"israel_gtfs","gtfs:verified":"no","highway":"bus_stop","name:he":"הכשרת הישוב/הבונים"}},"gtfs":{"lat":31.219766,"lon":34.812412,"tags":{"ref":"11783","name:he":"הכשרת הישוב/הבונים","description":"רחוב:הכשרת היישוב עיר: באר שבע רציף: קומה:","name:en":"Hakhsharat HaYeshuv/HaBonim","name:ar":"هخشرات هيشوڤ/هبونيم"}}}
{"ref":"12088","extra":{"discussion":null,"osmId":1803080731},"osm":{"lat":31.7316599,"lon":34.7525334,"tags":{"name:ar":"كنيون شَعري هَعير/جادة مناحيم بيچِن","ref":"12088","name":"קניון שערי העיר/שדרות מנחם בגין","description":"רחוב:שדרות מנחם בגין 6 עיר: קרית מלאכי רציף: קומה:","name:en":"Sha'are Ha'Ir Mall/Menachem Begin Boulevard","source":"israel_gtfs","gtfs:verified":"no","highway":"bus_stop","name:he":"קניון שערי העיר/שדרות מנחם בגין"}},"gtfs":{"lat":31.731669,"lon":34.752571,"tags":{"ref":"12088","name:he":"קניון שערי העיר/שדרות מנחם בגין","description":"רחוב:שדרות מנחם בגין 6 עיר: קרית מלאכי רציף: קומה:","name:en":"Sha'are Ha'Ir Mall/Menachem Begin Boulevard","name:ar":"كنيون شَعري هَعير/جادة مناحيم بيچِن"}}}
{"ref":"14073","extra":{"discussion":null,"osmId":1803072717},"osm":{"lat":31.21764,"lon":34.873474,"tags":{"name:ar":"تفرّع نِڤتيم/ شارع ٢٥","ref":"14073","name":"מסעף נבטים/כביש 25","description":"רחוב:25 עיר: בני שמעון רציף: קומה:","name:en":"Nevatim Intersection/Road 25","source":"israel_gtfs","gtfs:verified":"no","highway":"bus_stop","name:he":"מסעף נבטים/כביש 25"}},"gtfs":{"lat":31.21764,"lon":34.873474,"tags":{"ref":"14073","name:he":"מסעף נבטים/כביש 25","description":"רחוב:25 עיר: בני שמעון רציף: קומה:","name:en":"Nevatim Intersection/Road 25","name:ar":"تفرّع نِڤتيم/ شارع 25"}}}
{"ref":"14644","extra":{"discussion":null,"osmId":1803095445},"osm":{"lat":31.448385,"lon":34.651183,"tags":{"name:ar":"293/2932","ref":"14644","name":"293/2932","description":"רחוב:2932 עיר: מרחבים רציף: קומה:","name:en":"293/2932","source":"israel_gtfs","gtfs:verified":"no","highway":"bus_stop"}},"gtfs":{"lat":31.448385,"lon":34.651183,"tags":{"ref":"14644","name:he":"293/2932","description":"רחוב:2932 עיר: מרחבים רציף: קומה:","name:en":"293/2932","name:ar":"293/2932"}}}
{"ref":"15180","extra":{"discussion":null,"osmId":5212785849},"osm":{"lat":31.6052829,"lon":34.7590492,"tags":{"name:ar":"جادة ملَخي يسرائيل/جادة تساهل","ref":"15180","name":"שד. מלכי ישראל/שד. צה''ל","description":"רחוב:שדרות מלכי ישראל 173 עיר: קרית גת רציף: קומה:","name:en":"Malkhe Israel Blvd/Tsahal Blvd","source":"israel_gtfs","gtfs:verified":"no","highway":"bus_stop","name:he":"שד. מלכי ישראל/שד. צה''ל"}},"gtfs":{"lat":31.605284,"lon":34.75908,"tags":{"ref":"15180","name:he":"שד. מלכי ישראל/שד. צה''ל","description":"רחוב:שדרות מלכי ישראל 173 עיר: קרית גת רציף: קומה:","name:en":"Malkhe Israel Blvd/Tsahal Blvd","name:ar":"جادة ملَخي يسرائيل/جادة تساهل"}}}
{"ref":"15275","extra":{"discussion":null,"osmId":1803010962},"osm":{"lat":31.525273,"lon":34.604007,"tags":{"name:ar":"طريق القدس/ طريق مناحيم بيچِن","ref":"15275","name":"דרך ירושלים","description":"רחוב:דרך ירושלים עיר: שדרות רציף: קומה:","name:en":"Yerushalayim Road/Menachem Begin Road","source":"israel_gtfs","gtfs:verified":"no","highway":"bus_stop","name:he":"דרך ירושלים"}},"gtfs":{"lat":31.525273,"lon":34.604007,"tags":{"ref":"15275","name:he":"דרך ירושלים/דרך מנחם בגין","description":"רחוב:דרך ירושלים עיר: שדרות רציף: קומה:","name:en":"Yerushalayim Road/Menachem Begin Road","name:ar":"طريق القدس/ طريق مناحيم بيچِن"}}}
{"ref":"15280","extra":{"discussion":null,"osmId":1803055610},"osm":{"lat":31.526765,"lon":34.601111,"tags":{"name:ar":"مناحم بيچن-مكتبة عامة","ref":"15280","name":"ספריה ציבורית","description":"רחוב:יצחק שמיר עיר: שדרות רציף: קומה:","name:en":"Menachem Begin - Public Library","source":"israel_gtfs","gtfs:verified":"no","highway":"bus_stop","name:he":"ספריה ציבורית"}},"gtfs":{"lat":31.526765,"lon":34.601111,"tags":{"ref":"15280","name:he":"מנחם בגין-ספריה ציבורית","description":"רחוב:יצחק שמיר עיר: שדרות רציף: קומה:","name:en":"Menachem Begin - Public Library","name:ar":"مناحم بيچن-مكتبة عامة"}}}
{"ref":"15362","extra":{"discussion":null,"osmId":1802996513},"osm":{"lat":31.417853,"lon":34.612285,"tags":{"name:ar":"بيت هچدي","ref":"15362","name":"בית הגדי","description":"רחוב:293 עיר: שדות נגב רציף: קומה:","name:en":"Beit HaGadi","source":"israel_gtfs","gtfs:verified":"no","highway":"bus_stop","name:he":"בית הגדי"}},"gtfs":{"lat":31.417853,"lon":34.612285,"tags":{"ref":"15362","name:he":"בית הגדי","description":"רחוב:293 עיר: שדות נגב רציף: קומה:","name:en":"Bet HaGadi","name:ar":"بيت هچدي"}}}
{"ref":"15365","extra":{"discussion":null,"osmId":1802996512},"osm":{"lat":31.417414,"lon":34.611212,"tags":{"name:ar":"بيت هچدي","ref":"15365","name":"בית הגדי","description":"רחוב:293 עיר: שדות נגב רציף: קומה:","name:en":"Beit HaGadi","source":"israel_gtfs","gtfs:verified":"no","highway":"bus_stop","name:he":"בית הגדי"}},"gtfs":{"lat":31.417414,"lon":34.611212,"tags":{"ref":"15365","name:he":"בית הגדי","description":"רחוב:293 עיר: שדות נגב רציף: קומה:","name:en":"Bet HaGadi","name:ar":"بيت هچدي"}}}
{"ref":"15603","extra":{"discussion":null,"osmId":1802982173},"osm":{"lat":31.50906,"lon":34.586259,"tags":{"name:ar":"مفرق شاهر هَنيچڤ","ref":"15603","name":"צומת שער הנגב","description":"רחוב:34 עיר: שער הנגב רציף: קומה:","name:en":"Sha'ar HaNegev Junction","source":"israel_gtfs","gtfs:verified":"no","highway":"bus_stop","name:he":"צומת שער הנגב"}},"gtfs":{"lat":31.50906,"lon":34.586259,"tags":{"ref":"15603","name:he":"צומתשער הנגב","description":"רחוב:34 עיר: שער הנגב רציף: קומה:","name:en":"Sha'ar HaNegev Junction","name:ar":"مفرق شاهر هَنيچڤ"}}}
{"ref":"1586","extra":{"discussion":null,"osmId":1803003979},"osm":{"lat":31.7566232,"lon":35.1953798,"tags":{"name:ar":"چولومڤ/سان مارتين","ref":"1586","name":"גולומב/סן מרטין","description":"רחוב:גולומב עיר: ירושלים רציף: קומה:","name:en":"Golomb/San Martin","source":"israel_gtfs","gtfs:verified":"no","highway":"bus_stop","name:he":"גולומב/סן מרטין"}},"gtfs":{"lat":31.756653,"lon":35.195434,"tags":{"ref":"1586","name:he":"גולומב/סן מרטין","description":"רחוב:גולומב עיר: ירושלים רציף: קומה:","name:en":"Golomb/San Martin","name:ar":"چولومڤ/سان مارتين"}}}
{"ref":"16138","extra":{"discussion":null,"osmId":1803068772},"osm":{"lat":31.060986,"lon":35.021397,"tags":{"name:ar":"بيرتس سنتر","ref":"16138","name":"פרץ סנטר /כביש 25","description":"רחוב:25 עיר: דימונה רציף: קומה:","name:en":"Peretz Center","source":"israel_gtfs","gtfs:verified":"no","highway":"bus_stop","name:he":"פרץ סנטר /כביש 25"}},"gtfs":{"lat":31.060986,"lon":35.021397,"tags":{"ref":"16138","name:he":"פרץ סנטר","description":"רחוב:25 עיר: דימונה רציף: קומה:","name:en":"Peretz Center","name:ar":"بيرتس سنتر"}}}
{"ref":"1807","extra":{"discussion":null,"osmId":1803066028},"osm":{"lat":31.7685418,"lon":35.1656371,"tags":{"name:ar":"عين كيرم/مدرجات هَكفار","ref":"1807","name":"עין כרם/מדרגות הכפר","description":"רחוב:עין כרם עיר: ירושלים רציף: קומה:","name:en":"En Kerem/Madregot Hakfar","source":"israel_gtfs","gtfs:verified":"no","highway":"bus_stop","name:he":"עין כרם/מדרגות הכפר"}},"gtfs":{"lat":31.768546,"lon":35.165642,"tags":{"ref":"1807","name:he":"עין כרם/מדרגות הכפר","description":"רחוב:עין כרם עיר: ירושלים רציף: קומה:","name:en":"En Kerem/Madregot Hakfar","name:ar":"عين كيرم/مدرجات هَكفار"}}}
{"ref":"18193","extra":{"discussion":null,"osmId":5210725283},"osm":{"lat":31.423009,"lon":34.606719,"tags":{"name:ar":"بيت هچدي ب","ref":"18193","name":"בית הגדי ב","description":"רחוב:נווה ישראל עיר: בית הגדי רציף: קומה:","name:en":"Beit HaGadi B","source":"israel_gtfs","gtfs:verified":"no","highway":"bus_stop","name:he":"בית הגדי ב"}},"gtfs":{"lat":31.423009,"lon":34.606719,"tags":{"ref":"18193","name:he":"בית הגדי ב","description":"רחוב:נווה ישראל עיר: בית הגדי רציף: קומה:","name:en":"Bet HaGadi B","name:ar":"بيت هچدي ب"}}}
{"ref":"18203","extra":{"discussion":null,"osmId":5210725275},"osm":{"lat":31.423678,"lon":34.605404,"tags":{"name:ar":"بيت هچدي ج","ref":"18203","name":"בית הגדי ג","description":"רחוב:הרב עיר: בית הגדי רציף: קומה:","name:en":"Beit HaGadi G","source":"israel_gtfs","gtfs:verified":"no","highway":"bus_stop","name:he":"בית הגדי ג"}},"gtfs":{"lat":31.423678,"lon":34.605404,"tags":{"ref":"18203","name:he":"בית הגדי ג","description":"רחוב:הרב עיר: בית הגדי רציף: קומה:","name:en":"Bet HaGadi G","name:ar":"بيت هچدي ج"}}}
{"ref":"19215","extra":{"discussion":null,"osmId":1803085303},"osm":{"lat":31.189759,"lon":34.840211,"tags":{"name:ar":"حي ٤","ref":"19215","name":"حي ٤","description":"רחוב: עיר: שגב שלום רציף: קומה:","name:en":"Quarter 4","source":"israel_gtfs","gtfs:verified":"no","highway":"bus_stop","name:he":"שכונה 4"}},"gtfs":{"lat":31.189759,"lon":34.840211,"tags":{"ref":"19215","name:he":"שכונה 4","description":"רחוב: עיר: שגב שלום רציף: קומה:","name:en":"Quarter 4","name:ar":"حي 4"}}}
{"ref":"19227","extra":{"discussion":null,"osmId":1803090913},"osm":{"lat":31.256173,"lon":34.863858,"tags":{"name:ar":"حي ٧","ref":"19227","name":"حي ٧","description":"רחוב: עיר: תל שבע רציף: קומה:","name:en":"Quarter 7","source":"israel_gtfs","gtfs:verified":"no","highway":"bus_stop","name:he":"שכונה 7"}},"gtfs":{"lat":31.256173,"lon":34.863858,"tags":{"ref":"19227","name:he":"שכונה 7","description":"רחוב: עיר: תל שבע רציף: קומה:","name:en":"Quarter 7","name:ar":"حي 7"}}}
{"ref":"19232","extra":{"discussion":null,"osmId":1803090959},"osm":{"lat":31.250827,"lon":34.858912,"tags":{"name:ar":"حارة ٨","ref":"19232","name":"حارة ٨","description":"רחוב: עיר: תל שבע רציף: קומה:","name:en":"Quarter 8","source":"israel_gtfs","gtfs:verified":"no","highway":"bus_stop","name:he":"שכונה 8"}},"gtfs":{"lat":31.250827,"lon":34.858912,"tags":{"ref":"19232","name:he":"שכונה 8","description":"רחוב: עיר: תל שבע רציף: קומה:","name:en":"Quarter 8","name:ar":"حارة 8"}}}
{"ref":"19242","extra":{"discussion":null,"osmId":1803072712},"osm":{"lat":31.217117,"lon":34.874944,"tags":{"name:ar":"تفرّع نِڤتيم/ شارع ٢٥","ref":"19242","name":"מסעף נבטים/כביש 25","description":"רחוב:25 עיר: בני שמעון רציף: קומה:","name:en":"Nevatim Intersection/Road 25","source":"israel_gtfs","gtfs:verified":"no","highway":"bus_stop","name:he":"מסעף נבטים/כביש 25"}},"gtfs":{"lat":31.217117,"lon":34.874944,"tags":{"ref":"19242","name:he":"מסעף נבטים/כביש 25","description":"רחוב:25 עיר: בני שמעון רציף: קומה:","name:en":"Nevatim Intersection/Road 25","name:ar":"تفرّع نِڤتيم/ شارع 25"}}}
{"ref":"19250","extra":{"discussion":null,"osmId":1803051811},"osm":{"lat":31.1987965,"lon":34.838266,"tags":{"name:ar":"المجلس المحلي","ref":"19250","name":"مجلس محلي","description":"רחוב: עיר: שגב שלום רציף: קומה:","name:en":"Local Council","source":"israel_gtfs","gtfs:verified":"no","highway":"bus_stop","name:he":"מועצה מקומית"}},"gtfs":{"lat":31.198807,"lon":34.838266,"tags":{"ref":"19250","name:he":"מועצה מקומית","description":"רחוב: עיר: שגב שלום רציף: קומה:","name:en":"Local Council","name:ar":"المجلس المحلي"}}}
{"ref":"19525","extra":{"discussion":null,"osmId":1803010963},"osm":{"lat":31.525315,"lon":34.603912,"tags":{"name:ar":"طريق القدس/ طريق مناحيم بيچِن","ref":"19525","name":"דרך ירושלים","description":"רחוב:דרך ירושלים עיר: שדרות רציף: קומה:","name:en":"Yerushalayim Road/Menachem Begin Road","source":"israel_gtfs","gtfs:verified":"no","highway":"bus_stop","name:he":"דרך ירושלים"}},"gtfs":{"lat":31.525315,"lon":34.603912,"tags":{"ref":"19525","name:he":"דרך ירושלים/דרך מנחם בגין","description":"רחוב:דרך ירושלים עיר: שדרות רציף: קומה:","name:en":"Yerushalayim Road/Menachem Begin Road","name:ar":"طريق القدس/ طريق مناحيم بيچِن"}}}
{"ref":"19545","extra":{"discussion":null,"osmId":1803031882},"osm":{"lat":31.076959,"lon":35.034977,"tags":{"name:ar":"هَراڤ النكڤي/إيلا","ref":"19545","description":"רחוב:הרב אלנקווה עיר: דימונה רציף: קומה:","name:en":"HaRav Alnaqua/Ela","source":"israel_gtfs","gtfs:verified":"no","highway":"bus_stop"}},"gtfs":{"lat":31.076959,"lon":35.034977,"tags":{"ref":"19545","name:he":"הרב אלנקווה/אלה","description":"רחוב:הרב אלנקווה עיר: דימונה רציף: קומה:","name:en":"HaRav Alnaqua/Ela","name:ar":"هَراڤ النكڤي/إيلا"}}}
{"ref":"20128","extra":{"discussion":53669426,"osmId":null},"osm":null,"gtfs":{"lat":32.148986,"lon":34.804257,"tags":{"ref":"20128","name:he":"מרכז מסחרי סינמה סיטי/2","description":"רחוב:2 עיר: רמת השרון רציף: קומה:","name:en":"Cinema City Commercial Center/2","name:ar":"مركز تجاري سينما سيتي/2"}}}
{"ref":"20194","extra":{"discussion":null,"osmId":1803031816},"osm":{"lat":32.1378243,"lon":34.8359746,"tags":{"name:ar":"هريشونيم/سوكولوڤ","ref":"20194","fixme":"Suspected duplicate stop. Flagged by SafwatHalaby_bot (flag-gtfs1).","name":"הראשונים/סוקולוב;ראשונים","description":"רחוב:דרך ראשונים 6 עיר: רמת השרון רציף: קומה:","name:en":"HaRishonim/Sokolov","source":"israel_gtfs","gtfs:verified":"no","highway":"bus_stop","name:he":"הראשונים/סוקולוב;ראשונים"}},"gtfs":{"lat":32.137801,"lon":34.836143,"tags":{"ref":"20194","name:he":"הראשונים/סוקולוב","description":"רחוב:דרך ראשונים 6 עיר: רמת השרון רציף: קומה:","name:en":"HaRishonim/Sokolov","name:ar":"هريشونيم/سوكولوڤ"}}}
{"ref":"20348","extra":{"discussion":null,"osmId":1803011220},"osm":{"lat":32.085267,"lon":34.795006,"tags":{"name:ar":"طريق نَمير/جابوتنسكي","ref":"20348","name":"דרך נמיר/ז’בוטינסקי","description":"רחוב:דרך נמיר 55 עיר: תל אביב יפו רציף: קומה:","name:en":"Namir Road/Jabotinsky","source":"israel_gtfs","gtfs:verified":"no","highway":"bus_stop"}},"gtfs":{"lat":32.085267,"lon":34.795006,"tags":{"ref":"20348","name:he":"דרך נמיר/ז’בוטינסקי","description":"רחוב:דרך נמיר 55 עיר: תל אביב יפו רציף: קומה:","name:en":"Namir Road/Jabotinsky","name:ar":"طريق نَمير/جابوتنسكي"}}}
{"ref":"20377","extra":{"discussion":53669426,"osmId":null},"osm":null,"gtfs":{"lat":32.135579,"lon":34.833007,"tags":{"ref":"20377","name:he":"מחלף הכפר הירוק","description":"רחוב:יציאה לכביש 5 עיר: רמת השרון רציף: קומה:","name:en":"HaKfar HaYarok Interchange","name:ar":"مفترق هَكفار هَيروك"}}}
{"ref":"20482","extra":{"discussion":null,"osmId":1802995153},"osm":{"lat":32.117386,"lon":34.805957,"tags":{"ref":"20482","name":"ביה''ס לרפואה/קלצ’קין","description":"רחוב:קלצ'קין עיר: תל אביב יפו רציף: קומה:","name:en":"Klatskin (School of Medicine)","source":"israel_gtfs","gtfs:verified":"no","highway":"bus_stop"}},"gtfs":{"lat":32.117386,"lon":34.805957,"tags":{"ref":"20482","name:he":"ביה''ס לרפואה/קלצ’קין","description":"רחוב:קלצ'קין עיר: תל אביב יפו רציף: קומה:"}}}
{"ref":"20503","extra":{"discussion":null,"osmId":1802995149},"osm":{"lat":32.117552,"lon":34.805965,"tags":{"ref":"20503","name":"ביה''ס לרפואה/קלצ’קין","description":"רחוב:קלצ'קין עיר: תל אביב יפו רציף: קומה:","name:en":"Klatskin (School of Medicine)","source":"israel_gtfs","gtfs:verified":"no","highway":"bus_stop"}},"gtfs":{"lat":32.117552,"lon":34.805965,"tags":{"ref":"20503","name:he":"ביה''ס לרפואה/קלצ’קין","description":"רחוב:קלצ'קין עיר: תל אביב יפו רציף: קומה:"}}}
{"ref":"21471","extra":{"discussion":null,"osmId":1803053318},"osm":{"lat":32.1334058,"lon":34.8344526,"tags":{"name:ar":"مفترق هَكفار هَيروك","ref":"21471","name":"מחלף הכפר הירוק","description":"רחוב: עיר: רמת השרון רציף: קומה:","name:en":"HaKfar HaYarok Interchange","source":"israel_gtfs","gtfs:verified":"no","highway":"bus_stop","name:he":"מחלף הכפר הירוק"}},"gtfs":{"lat":32.133109,"lon":34.834885,"tags":{"ref":"21471","name:he":"מחלף הכפר הירוק","description":"רחוב: עיר: רמת השרון רציף: קומה:","name:en":"HaKfar HaYarok Interchange","name:ar":"مفترق هَكفار هَيروك"}}}
{"ref":"21547","extra":{"discussion":null,"osmId":1803080015},"osm":{"lat":32.118007,"lon":34.802148,"tags":{"name:ar":"كلتسكين/ حاييم لبنون","ref":"21547","shelter":"yes","bench":"yes","name":"קלצ’קין/חיים לבנון","description":"רחוב:קלצ'קין עיר: תל אביב יפו רציף: קומה:","name:en":"Klatzkin/Haim Levanon","source":"israel_gtfs","gtfs:verified":"no","highway":"bus_stop"}},"gtfs":{"lat":32.118007,"lon":34.802148,"tags":{"ref":"21547","name:he":"קלצ’קין/חיים לבנון","description":"רחוב:קלצ'קין עיר: תל אביב יפו רציף: קומה:","name:en":"Klatzkin/Haim Levanon","name:ar":"كلتسكين/ حاييم لبنون"}}}
{"ref":"21564","extra":{"discussion":null,"osmId":1803011221},"osm":{"lat":32.086373,"lon":34.795498,"tags":{"name:ar":"طريق نَمير/جابوتنسكي","ref":"21564","name":"דרך נמיר/ז’בוטינסקי","description":"רחוב:דרך נמיר 62 עיר: תל אביב יפו רציף: קומה:","name:en":"Namir Road/Jabotinsky","source":"israel_gtfs","gtfs:verified":"no","highway":"bus_stop"}},"gtfs":{"lat":32.086373,"lon":34.795498,"tags":{"ref":"21564","name:he":"דרך נמיר/ז’בוטינסקי","description":"רחוב:דרך נמיר 62 עיר: תל אביב יפו רציף: קומה:","name:en":"Namir Road/Jabotinsky","name:ar":"طريق نَمير/جابوتنسكي"}}}
{"ref":"23083","extra":{"discussion":53669426,"osmId":null},"osm":null,"gtfs":{"lat":32.137517,"lon":34.826293,"tags":{"ref":"23083","name:he":"צ. הכפר הירוק","description":"רחוב:5 עיר: רמת השרון רציף: קומה:","name:en":"HaKfar HaYarok Junction","name:ar":"مفرق هَكفار هَيروك"}}}
{"ref":"25877","extra":{"discussion":null,"osmId":1803004210},"osm":{"lat":32.087558,"lon":34.784929,"tags":{"name:ar":"چمناسيا هرتسليا/جابوتنسكي","ref":"25877","name":"גימנסיה הרצליה/ז’בוטינסקי","description":"רחוב:ז'בוטינסקי 106 עיר: תל אביב יפו רציף: קומה:","name:en":"Gimnasia Hertzliya/Jabotinsky","source":"israel_gtfs","gtfs:verified":"no","highway":"bus_stop"}},"gtfs":{"lat":32.087558,"lon":34.784929,"tags":{"ref":"25877","name:he":"גימנסיה הרצליה/ז’בוטינסקי","description":"רחוב:ז'בוטינסקי 106 עיר: תל אביב יפו רציף: קומה:","name:en":"Gimnasia Hertzliya/Jabotinsky","name:ar":"چمناسيا هرتسليا/جابوتنسكي"}}}
{"ref":"25878","extra":{"discussion":null,"osmId":1803004322},"osm":{"lat":32.087649,"lon":34.785472,"tags":{"name:ar":"چمناسيا هرتسليا/جابوتنسكي","ref":"25878","name":"גמנסיה הרצליה/ז’בוטינסקי","description":"רחוב:ז'בוטינסקי 105 עיר: תל אביב יפו רציף: קומה:","name:en":"Gimnasia hertzliya/Jabotinsky","source":"israel_gtfs","gtfs:verified":"no","highway":"bus_stop"}},"gtfs":{"lat":32.087649,"lon":34.785472,"tags":{"ref":"25878","name:he":"גמנסיה הרצליה/ז’בוטינסקי","description":"רחוב:ז'בוטינסקי 105 עיר: תל אביב יפו רציף: קומה:","name:en":"Gimnasia hertzliya/Jabotinsky","name:ar":"چمناسيا هرتسليا/جابوتنسكي"}}}
{"ref":"26091","extra":{"discussion":null,"osmId":1802992183},"osm":{"lat":32.070515,"lon":34.802564,"tags":{"ref":"26091","name":"ב. עלמין נחלת יצחק/רמב''ם","description":"רחוב:רמב''ם 5 עיר: גבעתיים רציף: קומה:","name:en":"Cemetery Nakhalat Itzkhak","source":"israel_gtfs","gtfs:verified":"no","highway":"bus_stop","name:he":"ב. עלמין נחלת יצחק/רמב''ם"}},"gtfs":{"lat":32.070515,"lon":34.802564,"tags":{"ref":"26091","name:he":"ב. עלמין נחלת יצחק/רמב''ם","description":"רחוב:רמב''ם 5 עיר: גבעתיים רציף: קומה:"}}}
{"ref":"26092","extra":{"discussion":null,"osmId":1802996616},"osm":{"lat":32.070995,"lon":34.802154,"tags":{"ref":"26092","name":"בית העלמין/רמב''ם","description":"רחוב:רמב''ם 3 עיר: גבעתיים רציף: קומה:","name:en":"Cemetery Nakhalat Itzkhak","source":"israel_gtfs","gtfs:verified":"no","highway":"bus_stop","name:he":"בית העלמין/רמב''ם"}},"gtfs":{"lat":32.070995,"lon":34.802154,"tags":{"ref":"26092","name:he":"בית העלמין/רמב''ם","description":"רחוב:רמב''ם 3 עיר: גבעתיים רציף: קומה:"}}}
{"ref":"26315","extra":{"discussion":null,"osmId":1803047528},"osm":{"lat":32.106109,"lon":34.8045,"tags":{"ref":"26315","shelter":"no","bench":"no","name":"כיכר ד''ר ג'ורג' וייז/2224","description":"רחוב:ירוחם משל עיר: תל אביב יפו רציף: קומה:","name:en":"Dr. George Wise 2224 roundabout","source":"israel_gtfs","gtfs:verified":"no","highway":"bus_stop","name:he":"כיכר ד''ר ג'ורג' וייז/2224"}},"gtfs":{"lat":32.106109,"lon":34.8045,"tags":{"ref":"26315","name:he":"כיכר ד''ר ג'ורג' וייז/2224","description":"רחוב:ירוחם משל עיר: תל אביב יפו רציף: קומה:"}}}
{"ref":"26707","extra":{"discussion":null,"osmId":1803001104},"osm":{"lat":32.117935,"lon":34.81792,"tags":{"name":"בני אפרים/שד’ קק''ל","description":"רחוב:בני אפרים 261 עיר: תל אביב יפו רציף: קומה:","ref":"26707","source":"israel_gtfs","gtfs:verified":"no","highway":"bus_stop"}},"gtfs":{"lat":32.117935,"lon":34.81792,"tags":{"ref":"26707","name:he":"בני אפרים/שד’ קק''ל","description":"רחוב:בני אפרים 261 עיר: תל אביב יפו רציף: קומה:"}}}
{"ref":"26749","extra":{"discussion":53669426,"osmId":null},"osm":null,"gtfs":{"lat":32.14792,"lon":34.803798,"tags":{"ref":"26749","name:he":"סינמה סיטי/כביש 2","description":"רחוב:2 עיר: רמת השרון רציף: קומה:","name:en":"Cinema City/Road 2","name:ar":"سينما سيتي/شارع 2"}}}
{"ref":"26970","extra":{"discussion":null,"osmId":1803001097},"osm":{"lat":32.117546,"lon":34.818048,"tags":{"name":"בני אפרים/שד’ קק''ל","description":"רחוב:בני אפרים עיר: תל אביב יפו רציף: קומה:","ref":"26970","source":"israel_gtfs","gtfs:verified":"no","highway":"bus_stop"}},"gtfs":{"lat":32.117546,"lon":34.818048,"tags":{"ref":"26970","name:he":"בני אפרים/שד’ קק''ל","description":"רחוב:בני אפרים עיר: תל אביב יפו רציף: קומה:"}}}
{"ref":"30017","extra":{"discussion":null,"osmId":1803052586},"osm":{"lat":32.2698895,"lon":34.8462657,"tags":{"name:ar":"مفرق أوديم","ref":"30017","name":"צומת אודים","description":"רחוב:יציאה למחלף פולג עיר: נתניה רציף: קומה:","name:en":"Udim Junction","source":"israel_gtfs","gtfs:verified":"no","highway":"bus_stop","name:he":"צומת אודים"}},"gtfs":{"lat":32.26982,"lon":34.846082,"tags":{"ref":"30017","name:he":"צומת אודים","description":"רחוב:יציאה למחלף פולג עיר: נתניה רציף: קומה:","name:en":"Udim Junction","name:ar":"مفرق أوديم"}}}
{"ref":"30026","extra":{"discussion":53669426,"osmId":null},"osm":null,"gtfs":{"lat":32.269297,"lon":34.845109,"tags":{"ref":"30026","name:he":"צומת אודים","description":"רחוב:2 עיר: אודים רציף: קומה:","name:en":"Udim Junction","name:ar":"مفرق أوديم"}}}
{"ref":"30157","extra":{"discussion":53669426,"osmId":null},"osm":null,"gtfs":{"lat":32.326805,"lon":34.861981,"tags":{"ref":"30157","name:he":"הרצל/דרך רזיאל","description":"רחוב:הרצל 64 עיר: נתניה רציף: קומה:","name:en":"Herzl/Razi'el Road","name:ar":"هرتسل/طريق رزيئِل"}}}
{"ref":"30871","extra":{"discussion":53669426,"osmId":null},"osm":null,"gtfs":{"lat":32.325235,"lon":34.865512,"tags":{"ref":"30871","name:he":"מחלף נתניה","description":"רחוב:הרצל עיר: נתניה רציף: קומה:","name:en":"Netanya Interchange","name:ar":"مفترق نتانيا"}}}
{"ref":"30881","extra":{"discussion":53669426,"osmId":null},"osm":null,"gtfs":{"lat":32.32646,"lon":34.8632,"tags":{"ref":"30881","name:he":"הרצל/בנימין מינץ","description":"רחוב:הרצל 77 עיר: נתניה רציף: קומה:","name:en":"Herzl/Binyamin Mintz","name:ar":"هرتسل/بنيامين مينتس"}}}
{"ref":"31396","extra":{"discussion":null,"osmId":1803085999},"osm":{"lat":31.8060345,"lon":34.7771534,"tags":{"name:ar":"بيناس/ جادة بن چوريون","ref":"31396","name":"פינס/שדרות בן גוריון","description":"רחוב:פינס 79 עיר: גדרה רציף: קומה:","name:en":"Pines/Ben Gurion Boulevard","source":"israel_gtfs","gtfs:verified":"no","highway":"bus_stop","name:he":"פינס/שדרות בן גוריון"}},"gtfs":{"lat":31.805993,"lon":34.777255,"tags":{"ref":"31396","name:he":"פינס/שדרות בן גוריון","description":"רחוב:פינס 79 עיר: גדרה רציף: קומה:","name:en":"Pines/Ben Gurion Boulevard","name:ar":"بيناس/ جادة بن چوريون"}}}
{"ref":"31517","extra":{"discussion":null,"osmId":1803066328},"osm":{"lat":31.8694481,"lon":34.7445125,"tags":{"name:ar":"البلدية/جادة دوئاني","ref":"31517","name":"עירייה/שד. דואני","description":"רחוב:שדרות דואני 47 עיר: יבנה רציף: קומה:","name:en":"City Hall/Du'ani Blvd","source":"israel_gtfs","gtfs:verified":"no","highway":"bus_stop","name:he":"עירייה/שד. דואני"}},"gtfs":{"lat":31.86949,"lon":34.744531,"tags":{"ref":"31517","name:he":"עירייה/שד. דואני","description":"רחוב:שדרות דואני 47 עיר: יבנה רציף: קומה:","name:en":"City Hall/Du'ani Blvd","name:ar":"البلدية/جادة دوئاني"}}}
{"ref":"31654","extra":{"discussion":null,"osmId":5210720383},"osm":{"lat":31.899922,"lon":35.006593,"tags":{"name:ar":"م مركزية موديعين","ref":"31654","name":"תחנה מרכזית מודיעין מכבים רעות","description":"רחוב:שדרות החשמונאים עיר: מודיעין מכבים רעות רציף: 1 קומה:","name:en":"Central Station Modi'in","source":"israel_gtfs","gtfs:verified":"no","highway":"bus_stop","name:he":"תחנה מרכזית מודיעין מכבים רעות"}},"gtfs":{"lat":31.899922,"lon":35.006593,"tags":{"ref":"31654","name:he":"תחנה מרכזית מודיעין מכבים רעות","description":"רחוב:שדרות החשמונאים עיר: מודיעין מכבים רעות רציף: 1 קומה:","name:en":"Ctr.Sta.Modi'in","name:ar":"م مركزية موديعين"}}}
{"ref":"31655","extra":{"discussion":null,"osmId":5210720382},"osm":{"lat":31.899647,"lon":35.006621,"tags":{"name:ar":"م. مركزية/إنزال","ref":"31655","name":"תחנה מרכזית/הורדה","description":"רחוב:שדרות החשמונאים עיר: מודיעין מכבים רעות רציף: קומה:","name:en":"Central Station/Alight","source":"israel_gtfs","gtfs:verified":"no","highway":"bus_stop","name:he":"תחנה מרכזית/הורדה"}},"gtfs":{"lat":31.899647,"lon":35.006621,"tags":{"ref":"31655","name:he":"תחנה מרכזית/הורדה","description":"רחוב:שדרות החשמונאים עיר: מודיעין מכבים רעות רציף: קומה:","name:en":"Ctr.Sta./Alight","name:ar":"م. مركزية/إنزال"}}}
{"ref":"31661","extra":{"discussion":null,"osmId":3735211201},"osm":{"lat":32.029018,"lon":34.865313,"tags":{"name:ar":"هَعتسمؤوت/داڤيد إليعيزر","ref":"31661","shelter":"yes","bench":"yes","name":"העצמאות/ דוד אלעזר","description":"רחוב:העצמאות 40 עיר: אור יהודה רציף: קומה:","name:en":"Ha'Atsma'ut/David Elazar","source":"israel_gtfs","gtfs:verified":"no","highway":"bus_stop","name:he":"העצמאות/ דוד אלעזר"}},"gtfs":{"lat":32.029018,"lon":34.865313,"tags":{"ref":"31661","name:he":"העצמאות / דוד אלעזר","description":"רחוב:העצמאות 40 עיר: אור יהודה רציף: קומה:","name:en":"Ha'Atsma'ut/David Elazar","name:ar":"هَعتسمؤوت/داڤيد إليعيزر"}}}
{"ref":"33489","extra":{"discussion":null,"osmId":1803080274},"osm":{"lat":31.96875,"lon":34.842204,"tags":{"name:ar":"كنيون أساف/44","ref":"33489","name":"שער יפו","description":"רחוב: עיר: ראשון לציון רציף: קומה:","name:en":"Asaf Mall/44","source":"israel_gtfs","gtfs:verified":"no","highway":"bus_stop","name:he":"שער יפו"}},"gtfs":{"lat":31.96875,"lon":34.842204,"tags":{"ref":"33489","name:he":"קניון אסף/44","description":"רחוב: עיר: ראשון לציון רציף: קומה:","name:en":"Asaf Mall/44","name:ar":"كنيون أساف/44"}}}
{"ref":"33490","extra":{"discussion":null,"osmId":1803092857},"osm":{"lat":31.967499,"lon":34.837261,"tags":{"name:ar":"شاعَر يافو","ref":"33490","name":"מרכז קשר","description":"רחוב: עיר: באר יעקב רציף: קומה:","name:en":"Yaffo Gate","source":"israel_gtfs","gtfs:verified":"no","highway":"bus_stop","name:he":"מרכז קשר"}},"gtfs":{"lat":31.967499,"lon":34.837261,"tags":{"ref":"33490","name:he":"שער יפו","description":"רחוב: עיר: באר יעקב רציף: קומה:","name:en":"Yaffo Gate","name:ar":"شاعَر يافو"}}}
{"ref":"34154","extra":{"discussion":null,"osmId":1803067109},"osm":{"lat":31.9026595,"lon":35.0097646,"tags":{"name:ar":"وادي أيلون/تلتان","ref":"34154","name":"עמק איילון/תלתן (34154)","description":"רחוב:תלתן 33 עיר: מודיעין מכבים רעות רציף: קומה:","name:en":"Emek Ayalon/Tiltan","source":"israel_gtfs","gtfs:verified":"no","highway":"bus_stop","name:he":"עמק איילון/תלתן","operator":"קווים","operator:en":"Kavim"}},"gtfs":{"lat":31.902708,"lon":35.010066,"tags":{"ref":"34154","name:he":"עמק איילון/תלתן","description":"רחוב:תלתן 33 עיר: מודיעין מכבים רעות רציף: קומה:","name:en":"Emek Ayalon/Tiltan","name:ar":"وادي أيلون/تلتان"}}}
{"ref":"34155","extra":{"discussion":null,"osmId":1803067108},"osm":{"lat":31.9017569,"lon":35.0090777,"tags":{"name:ar":"وادي أيلون/تلتان","ref":"34155","name":"עמק איילון/תלתן (34155)","description":"רחוב:פיקוס 3 עיר: מודיעין מכבים רעות רציף: קומה:","name:en":"Emek Ayalon/Tiltan","source":"israel_gtfs","gtfs:verified":"no","highway":"bus_stop","name:he":"עמק איילון/תלתן","operator":"קווים","operator:en":"Kavim"}},"gtfs":{"lat":31.901986,"lon":35.009837,"tags":{"ref":"34155","name:he":"עמק איילון/תלתן","description":"רחוב:פיקוס 3 עיר: מודיעין מכבים רעות רציף: קומה:","name:en":"Emek Ayalon/Tiltan","name:ar":"وادي أيلون/تلتان"}}}
{"ref":"34201","extra":{"discussion":53669426,"osmId":null},"osm":null,"gtfs":{"lat":32.269538,"lon":34.846971,"tags":{"ref":"34201","name:he":"צומת אודים","description":"רחוב: עיר: אודים רציף: קומה:","name:en":"Udim Junction","name:ar":"مفرق أوديم"}}}
{"ref":"34669","extra":{"discussion":null,"osmId":1803092925},"osm":{"lat":31.967097,"lon":34.83571,"tags":{"name:ar":"شاعَر-يافو","ref":"34669","name":"מש\"א 7000","description":"רחוב: עיר: באר יעקב רציף: קומה:","name:en":"Yaffo Gate","source":"israel_gtfs","gtfs:verified":"no","highway":"bus_stop","name:he":"מש\"א 7000"}},"gtfs":{"lat":31.967097,"lon":34.83571,"tags":{"ref":"34669","name:he":"שער-יפו","description":"רחוב: עיר: באר יעקב רציף: קומה:","name:en":"Yaffo Gate","name:ar":"شاعَر-يافو"}}}
{"ref":"34741","extra":{"discussion":53669426,"osmId":null},"osm":null,"gtfs":{"lat":32.359101,"lon":34.870022,"tags":{"ref":"34741","name:he":"מחלף-חבצלת","description":"רחוב:2 עיר: עמק חפר רציף: קומה:","name:en":"Havatselet Interchange","name:ar":"مفترق-حڤتسيلت"}}}
{"ref":"35203","extra":{"discussion":null,"osmId":1803069894},"osm":{"lat":31.821871,"lon":34.705391,"tags":{"name:ar":"مفرق بني دروم","ref":"35203","name":"מחלף אשדוד","description":"רחוב:42 עיר: חבל יבנה רציף: קומה:","name:en":"Bne Darom Junction","source":"israel_gtfs","gtfs:verified":"no","highway":"bus_stop","name:he":"מחלף אשדוד"}},"gtfs":{"lat":31.821871,"lon":34.705391,"tags":{"ref":"35203","name:he":"צומת בני דרום","description":"רחוב:42 עיר: חבל יבנה רציף: קומה:","name:en":"Bne Darom Junction","name:ar":"مفرق بني دروم"}}}
{"ref":"37077","extra":{"discussion":null,"osmId":1803010017},"osm":{"lat":32.176164,"lon":34.93562,"tags":{"name:ar":"طريق هبوعيل/55","ref":"37077","name":"הפועל/55","description":"רחוב:דרך הפועל עיר: כפר סבא רציף: קומה:","name:en":"HaPo'el Road/55","source":"israel_gtfs","gtfs:verified":"no","highway":"bus_stop","name:he":"הפועל/55"}},"gtfs":{"lat":32.176164,"lon":34.93562,"tags":{"ref":"37077","name:he":"דרך הפועל/55","description":"רחוב:דרך הפועל עיר: כפר סבא רציף: קומה:","name:en":"HaPo'el Road/55","name:ar":"طريق هبوعيل/55"}}}
{"ref":"38045","extra":{"discussion":null,"osmId":1803010846},"osm":{"lat":32.047988,"lon":34.865412,"tags":{"name:ar":"طريق حتيڤت ألكسندروني/طريق ليڤي إشكول","ref":"38045","name":"חטיבת אלכסנדרוני/לוי אשכול","description":"רחוב:דרך לוי אשכול עיר: קרית אונו רציף: קומה:","name:en":"Hativat Alexandroni Road/Levi Eshkol Road","source":"israel_gtfs","gtfs:verified":"no","highway":"bus_stop","name:he":"חטיבת אלכסנדרוני/לוי אשכול"}},"gtfs":{"lat":32.047988,"lon":34.865412,"tags":{"ref":"38045","name:he":"דרך חטיבת אלכסנדרוני/דרך לוי אשכול","description":"רחוב:דרך לוי אשכול עיר: קרית אונו רציף: קומה:","name:en":"Hativat Alexandroni Road/Levi Eshkol Road","name:ar":"طريق حتيڤت ألكسندروني/طريق ليڤي إشكول"}}}
{"ref":"38500","extra":{"discussion":null,"osmId":1803069893},"osm":{"lat":31.822023,"lon":34.706642,"tags":{"name:ar":"مفرق بني دروم","ref":"38500","name":"מחלף אשדוד","description":"רחוב:יציאה לכביש 41 עיר: חבל יבנה רציף: קומה:","name:en":"Bne Darom Junction","source":"israel_gtfs","gtfs:verified":"no","highway":"bus_stop","name:he":"מחלף אשדוד"}},"gtfs":{"lat":31.822023,"lon":34.706642,"tags":{"ref":"38500","name:he":"צומת בני דרום","description":"רחוב:יציאה לכביש 41 עיר: חבל יבנה רציף: קומה:","name:en":"Bne Darom Junction","name:ar":"مفرق بني دروم"}}}
{"ref":"38683","extra":{"discussion":null,"osmId":1803051435},"osm":{"lat":31.969718,"lon":34.77343,"tags":{"name:ar":"موتا چور/يتسحاك رابين","ref":"38683","name":"המכללה למינהל/מוטה גור","description":"רחוב:מוטה גור 1 עיר: ראשון לציון רציף: קומה:","name:en":"Motta Gur/Yitshak Rabin","source":"israel_gtfs","gtfs:verified":"no","highway":"bus_stop","name:he":"המכללה למינהל/מוטה גור"}},"gtfs":{"lat":31.969718,"lon":34.77343,"tags":{"ref":"38683","name:he":"מוטה גור/יצחק רבין","description":"רחוב:מוטה גור 1 עיר: ראשון לציון רציף: קומה:","name:en":"Motta Gur/Yitshak Rabin","name:ar":"موتا چور/يتسحاك رابين"}}}
{"ref":"39215","extra":{"discussion":null,"osmId":1356937048},"osm":{"lat":32.311076,"lon":34.854911,"tags":{"ref":"39215","name":"בן צבי/הגר''א","description":"רחוב:שדרות בן צבי 6 עיר: נתניה רציף: קומה:","name:en":"Ben Tsvi School Tchernikhovski","source":"israel_gtfs","gtfs:verified":"no","highway":"bus_stop","name:he":"בן צבי/הגר''א"}},"gtfs":{"lat":32.311076,"lon":34.854911,"tags":{"ref":"39215","name:he":"בן צבי/הגר''א","description":"רחוב:שדרות בן צבי 6 עיר: נתניה רציף: קומה:"}}}
{"ref":"39246","extra":{"discussion":53669426,"osmId":null},"osm":null,"gtfs":{"lat":32.325412,"lon":34.864958,"tags":{"ref":"39246","name:he":"הרצל/עולי הגרדום","description":"רחוב:הרצל 98 עיר: נתניה רציף: קומה:","name:en":"Herzl/Ole HaGardom","name:ar":"هرتسل/عوليه هَچردوم"}}}
{"ref":"39273","extra":{"discussion":53669426,"osmId":null},"osm":null,"gtfs":{"lat":32.326819,"lon":34.862473,"tags":{"ref":"39273","name:he":"הרצל/מינץ","description":"רחוב:הרצל 65 עיר: נתניה רציף: קומה:","name:en":"Herzl/Mintz","name:ar":"هرتسل/مينتس"}}}
{"ref":"39274","extra":{"discussion":53669426,"osmId":null},"osm":null,"gtfs":{"lat":32.326176,"lon":34.863338,"tags":{"ref":"39274","name:he":"הרצל/בנימין מינץ","description":"רחוב:הרצל 82 עיר: נתניה רציף: קומה:","name:en":"Herzl/Binyamin Mintz","name:ar":"هرتسل/بنيامين مينتس"}}}
{"ref":"39540","extra":{"discussion":null,"osmId":1803001278},"osm":{"lat":32.29511,"lon":34.871827,"tags":{"name:ar":"بني ڤڤ. رايخ/أدار","ref":"39540","name":"בני וו. רייך/אדר","description":"רחוב:בני וו. רייך עיר: נתניה רציף: קומה:","name:en":"Benny W.Reich /Adar","source":"israel_gtfs","gtfs:verified":"no","highway":"bus_stop","name:he":"בני וו. רייך/אדר"}},"gtfs":{"lat":32.29511,"lon":34.871827,"tags":{"ref":"39540","name:he":"בני וו. רייך/אדר","description":"רחוב:בני וו. רייך עיר: נתניה רציף: קומה:","name:en":"Benny W.Reich /Adar","name:ar":"بني ڤڤ. رايخ/أدار"}}}
{"ref":"39541","extra":{"discussion":null,"osmId":1803001267},"osm":{"lat":32.2949,"lon":34.871619,"tags":{"name:ar":"بني ڤڤ. رايخ/أدار","ref":"39541","name":"בני וו. רייך/אדר","description":"רחוב:בני וו. רייך עיר: נתניה רציף: קומה:","name:en":"Benny W.Reich /Adar","source":"israel_gtfs","gtfs:verified":"no","highway":"bus_stop","name:he":"בני וו. רייך/אדר"}},"gtfs":{"lat":32.2949,"lon":34.871619,"tags":{"ref":"39541","name:he":"בני וו. רייך/אדר","description":"רחוב:בני וו. רייך עיר: נתניה רציף: קומה:","name:en":"Benny W.Reich /Adar","name:ar":"بني ڤڤ. رايخ/أدار"}}}
{"ref":"39578","extra":{"discussion":null,"osmId":1803039326},"osm":{"lat":32.00106,"lon":34.843829,"tags":{"name:ar":"موقف شفيريم","ref":"39578","name":"שפירים לר\"ג","description":"רחוב: עיר: עמק לוד רציף: קומה:","name:en":"Shapirim Parking","source":"israel_gtfs","gtfs:verified":"no","highway":"bus_stop","name:he":"שפירים לר\"ג"}},"gtfs":{"lat":32.00106,"lon":34.843829,"tags":{"ref":"39578","name:he":"חניון שפירים","description":"רחוב: עיר: עמק לוד רציף: קומה:","name:en":"Shapirim Parking","name:ar":"موقف شفيريم"}}}
{"ref":"40096","extra":{"discussion":null,"osmId":5212243621},"osm":{"lat":32.409077,"lon":34.9119782,"tags":{"name:ar":"مقبرة","ref":"40096","name":"בית עלמין","description":"רחוב:יצחק בן צבי עיר: חדרה רציף: קומה:","name:en":"Cemetery","source":"israel_gtfs","gtfs:verified":"no","highway":"bus_stop","name:he":"בית עלמין"}},"gtfs":{"lat":32.409079,"lon":34.911989,"tags":{"ref":"40096","name:he":"בית עלמין","description":"רחוב:יצחק בן צבי עיר: חדרה רציף: קומה:","name:en":"Cemetery","name:ar":"مقبرة"}}}
{"ref":"40267","extra":{"discussion":null,"osmId":1803062760},"osm":{"lat":32.571946,"lon":34.938372,"tags":{"ref":"40267","name":"שדרות ניל''י","description":"רחוב:שדרות ניל''י עיר: זכרון יעקב רציף: קומה:","source":"israel_gtfs","gtfs:verified":"no","highway":"bus_stop","name:he":"שדרות ניל''י"}},"gtfs":{"lat":32.571946,"lon":34.938372,"tags":{"ref":"40267","name:he":"משטרה/שדרות ניל''י","description":"רחוב:שדרות ניל''י עיר: זכרון יעקב רציף: קומה:"}}}
{"ref":"40366","extra":{"discussion":null,"osmId":5210716423},"osm":{"lat":32.5698665,"lon":34.9539996,"tags":{"name:ar":"همِيَسديم/طريق هچرنوت","ref":"40366","name":"המייסדים/דרך הגרנות","description":"רחוב:המייסדים 7 עיר: זכרון יעקב רציף: קומה:","name:en":"HaMeyasdim/HaGranot Road","source":"israel_gtfs","gtfs:verified":"no","highway":"bus_stop","name:he":"המייסדים/דרך הגרנות"}},"gtfs":{"lat":32.569798,"lon":34.954024,"tags":{"ref":"40366","name:he":"המייסדים/דרך הגרנות","description":"רחוב:המייסדים 7 עיר: זכרון יעקב רציף: קומה:","name:en":"HaMeyasdim/HaGranot Road","name:ar":"همِيَسديم/طريق هچرنوت"}}}
{"ref":"40372","extra":{"discussion":53659320,"osmId":5210716220},"osm":null,"gtfs":{"lat":32.568702,"lon":34.954011,"tags":{"ref":"40372","name:he":"הכובשים/המייסדים","description":"רחוב: עיר: זכרון יעקב רציף: קומה:","name:en":"HaKovshim/HaMeyasdim","name:ar":"هكوڤشيم/همِيَسديم"}}}
{"ref":"40401","extra":{"discussion":null,"osmId":5210716210},"osm":{"lat":32.5659023,"lon":34.9568251,"tags":{"name:ar":"طريق أهَرون/مزرعة زراعية","ref":"40401","name":"דרך אהרון/חווה חקלאית","description":"רחוב:דרך אהרון עיר: זכרון יעקב רציף: קומה:","name:en":"Aharon Road/Agricultural Farm","source":"israel_gtfs","gtfs:verified":"no","highway":"bus_stop","name:he":"דרך אהרון/חווה חקלאית"}},"gtfs":{"lat":32.56595,"lon":34.956857,"tags":{"ref":"40401","name:he":"דרך אהרון/חווה חקלאית","description":"רחוב:דרך אהרון עיר: זכרון יעקב רציף: קומה:","name:en":"Aharon Road/Agricultural Farm","name:ar":"طريق أهَرون/مزرعة زراعية"}}}
{"ref":"40431","extra":{"discussion":null,"osmId":5210716119},"osm":{"lat":32.532722,"lon":34.908336,"tags":{"name:ar":"شارع ٠٣","ref":"40431","name":"شارع ٠٣","description":"רחוב: עיר: ג'סר א זרקא רציף: קומה:","name:en":"03 Street","source":"israel_gtfs","gtfs:verified":"no","highway":"bus_stop","name:he":"רחוב 03"}},"gtfs":{"lat":32.532722,"lon":34.908336,"tags":{"ref":"40431","name:he":"רחוב 03","description":"רחוב: עיר: ג'סר א זרקא רציף: קומה:","name:en":"03 Street","name:ar":"شارع 03"}}}
{"ref":"40818","extra":{"discussion":null,"osmId":5210716044},"osm":{"lat":32.569913,"lon":34.942539,"tags":{"name:ar":"هحَلوتسيم/جادة نيلي","ref":"40818","name":"החלוצים/שד. ניל''י","description":"רחוב:שדרות ניל''י עיר: זכרון יעקב רציף: קומה:","name:en":"HaHalutzim/Nili Blvd","source":"israel_gtfs","gtfs:verified":"no","highway":"bus_stop","name:he":"החלוצים/שד. ניל''י"}},"gtfs":{"lat":32.569913,"lon":34.942539,"tags":{"ref":"40818","name:he":"החלוצים/שד. ניל''י","description":"רחוב:שדרות ניל''י עיר: זכרון יעקב רציף: קומה:","name:en":"HaHalutsim/Nili Blvd","name:ar":"هحَلوتسيم/جادة نيلي"}}}
{"ref":"41710","extra":{"discussion":null,"osmId":1803075230},"osm":{"lat":32.8107,"lon":35.06967,"tags":{"name:ar":"مفرق كريات آتا","ref":"41710","name":"מחלף מוטה גור","description":"רחוב:שדרות ההסתדרות עיר: חיפה רציף: קומה:","name:en":"Kiryat Ata Junction","source":"israel_gtfs","gtfs:verified":"no","highway":"bus_stop","name:he":"מחלף מוטה גור"}},"gtfs":{"lat":32.8107,"lon":35.06967,"tags":{"ref":"41710","name:he":"צומת קרית אתא","description":"רחוב:שדרות ההסתדרות עיר: חיפה רציף: קומה:","name:en":"Kiryat Ata Junction","name:ar":"مفرق كريات آتا"}}}
{"ref":"4173","extra":{"discussion":null,"osmId":1803025317},"osm":{"lat":31.782863,"lon":35.217585,"tags":{"ref":"4173","name":"'תחנת רקל''ה יפו מרכז/המלך ג'ורג","description":"רחוב:המלך ג'ורג' 3 עיר: ירושלים רציף: קומה:","name:en":"Tahanat rakevet kala Yafo Mercaz","source":"israel_gtfs","gtfs:verified":"no","highway":"bus_stop","name:he":"'תחנת רקל''ה יפו מרכז/המלך ג'ורג"}},"gtfs":{"lat":31.782863,"lon":35.217585,"tags":{"ref":"4173","name:he":"'תחנת רקל''ה יפו מרכז/המלך ג'ורג","description":"רחוב:המלך ג'ורג' 3 עיר: ירושלים רציף: קומה:"}}}
{"ref":"4174","extra":{"discussion":null,"osmId":1803089379},"osm":{"lat":31.783551,"lon":35.218004,"tags":{"ref":"4174","name":"תחנת רקל''ה יפו מרכז/שטראוס","description":"רחוב:נתן שטראוס 3 עיר: ירושלים רציף: קומה:","name:en":"Tahanat rakevet kala Yafo Mercaz/Shtrauss","source":"israel_gtfs","gtfs:verified":"no","highway":"bus_stop","name:he":"תחנת רקל''ה יפו מרכז/שטראוס"}},"gtfs":{"lat":31.783551,"lon":35.218004,"tags":{"ref":"4174","name:he":"תחנת רקל''ה יפו מרכז/שטראוס","description":"רחוב:נתן שטראוס 3 עיר: ירושלים רציף: קומה:"}}}
{"ref":"42558","extra":{"discussion":null,"osmId":1803034328},"osm":{"lat":32.4173949,"lon":34.9530136,"tags":{"name:ar":"هَشوشنيم/هَتأنيم","ref":"42558","name":"השושנים/התאנים","description":"רחוב:השושנים 34 עיר: חדרה רציף: קומה:","name:en":"HaShoshanim/HaTe'enim","source":"israel_gtfs","gtfs:verified":"no","highway":"bus_stop","name:he":"השושנים/התאנים"}},"gtfs":{"lat":32.417336,"lon":34.952976,"tags":{"ref":"42558","name:he":"השושנים/התאנים","description":"רחוב:השושנים 34 עיר: חדרה רציף: קומה:","name:en":"HaShoshanim/HaTe'enim","name:ar":"هَشوشنيم/هَتأنيم"}}}
{"ref":"426","extra":{"discussion":null,"osmId":1803095815},"osm":{"lat":31.788473,"lon":35.237339,"tags":{"name:ar":"704","ref":"426","name":"704","description":"רחוב:אל מוקדסי 37 עיר: ירושלים רציף: קומה:","name:en":"704","source":"israel_gtfs","gtfs:verified":"no","highway":"bus_stop"}},"gtfs":{"lat":31.788473,"lon":35.237339,"tags":{"ref":"426","name:he":"704","description":"רחוב:אל מוקדסי 37 עיר: ירושלים רציף: קומה:","name:en":"704","name:ar":"704"}}}
{"ref":"42705","extra":{"discussion":null,"osmId":5212263157},"osm":{"lat":32.7870971,"lon":35.016221,"tags":{"name:ar":"سيمحا چولان/حنيتا","ref":"42705","name":"שמחה גולן/חניתה","description":"רחוב:דרך שמחה גולן עיר: חיפה רציף: קומה:","name:en":"Simha Golan/Hanita","source":"israel_gtfs","gtfs:verified":"no","highway":"bus_stop","name:he":"שמחה גולן/חניתה"}},"gtfs":{"lat":32.787095,"lon":35.016191,"tags":{"ref":"42705","name:he":"שמחה גולן/חניתה","description":"רחוב:דרך שמחה גולן עיר: חיפה רציף: קומה:","name:en":"Simha Golan/Hanita","name:ar":"سيمحا چولان/حنيتا"}}}
{"ref":"43135","extra":{"discussion":null,"osmId":1803009849},"osm":{"lat":32.470399,"lon":34.979704,"tags":{"name:ar":"ديرخ هَنديڤ/هيوچڤ","ref":"43135","name":"דרך הנדיב/חבצלת","description":"רחוב:דרך הנדיב 22 עיר: פרדס חנה כרכור רציף: קומה:","name:en":"HaNadiv Road/HaYogev","source":"israel_gtfs","gtfs:verified":"no","highway":"bus_stop","name:he":"דרך הנדיב/חבצלת"}},"gtfs":{"lat":32.470399,"lon":34.979704,"tags":{"ref":"43135","name:he":"דרך הנדיב/היוגב","description":"רחוב:דרך הנדיב 22 עיר: פרדס חנה כרכור רציף: קומה:","name:en":"HaNadiv Road/HaYogev","name:ar":"ديرخ هَنديڤ/هيوچڤ"}}}
{"ref":"46008","extra":{"discussion":null,"osmId":5210715315},"osm":null,"gtfs":{"lat":32.559414,"lon":34.957966,"tags":{"ref":"46008","name:he":"652/דרך אהרון","description":"רחוב:652 עיר: זכרון יעקב רציף: קומה:","name:en":"Aharon Road/652","name:ar":"ديريخ أهرون/652"}}}
{"ref":"46096","extra":{"discussion":null,"osmId":1803095687},"osm":{"lat":32.502912,"lon":35.085248,"tags":{"name:ar":"كفرمندا/6524","ref":"46096","name":"65/6524","description":"רחוב:65 עיר: ערערה רציף: קומה:","name:en":"65/6524","source":"israel_gtfs","gtfs:verified":"no","highway":"bus_stop"}},"gtfs":{"lat":32.502912,"lon":35.085248,"tags":{"ref":"46096","name:he":"65/6524","description":"רחוב:65 עיר: ערערה רציף: קומה:","name:en":"65/6524","name:ar":"كفرمندا/6524"}}}
{"ref":"46181","extra":{"discussion":null,"osmId":1803071480},"osm":{"lat":32.569451,"lon":34.937017,"tags":{"name:ar":"مفرق زيخرون","ref":"46181","name":"מול זיכרון","description":"רחוב:4 עיר: חוף הכרמל רציף: קומה:","name:en":"Zikhron Junction","source":"israel_gtfs","gtfs:verified":"no","highway":"bus_stop","name:he":"מול זיכרון"}},"gtfs":{"lat":32.569451,"lon":34.937017,"tags":{"ref":"46181","name:he":"צומת זיכרון","description":"רחוב:4 עיר: חוף הכרמל רציף: קומה:","name:en":"Zikhron Junction","name:ar":"مفرق زيخرون"}}}
{"ref":"47037","extra":{"discussion":null,"osmId":1803057293},"osm":{"lat":32.689432,"lon":35.042054,"tags":{"name:ar":"تفرّع حي كشكوش","ref":"47037","name":"מסעף שכונת קשקוש","description":"רחוב: עיר: דאלית אל כרמל רציף: קומה:","name:en":"Kashkush Quarter Intersection","source":"israel_gtfs","gtfs:verified":"no","highway":"bus_stop","name:he":"מסעף שכונת קשקוש"}},"gtfs":{"lat":32.689432,"lon":35.042054,"tags":{"ref":"47037","name:he":"מסעף שכונת קשקוש","description":"רחוב: עיר: דאלית אל כרמל רציף: קומה:","name:en":"Kashkush Quarter Intersection","name:ar":"تفرّع حي كشكوش"}}}
{"ref":"47038","extra":{"discussion":null,"osmId":5210715295},"osm":{"lat":32.689378,"lon":35.04183,"tags":{"name:ar":"تفرّع حي كشكوش","ref":"47038","name":"מסעף שכונת קשקוש","description":"רחוב: עיר: דאלית אל כרמל רציף: קומה:","name:en":"Kashkush Quarter Intersection","source":"israel_gtfs","gtfs:verified":"no","highway":"bus_stop","name:he":"מסעף שכונת קשקוש"}},"gtfs":{"lat":32.689378,"lon":35.04183,"tags":{"ref":"47038","name:he":"מסעף שכונת קשקוש","description":"רחוב: עיר: דאלית אל כרמל רציף: קומה:","name:en":"Kashkush Quarter Intersection","name:ar":"تفرّع حي كشكوش"}}}
{"ref":"47407","extra":{"discussion":null,"osmId":1803020100},"osm":{"lat":32.810759,"lon":35.070003,"tags":{"name:ar":"ههِستدروت/ مفرق كريات آتا","ref":"47407","name":"מחלף מוטה גור","description":"רחוב:שדרות ההסתדרות עיר: חיפה רציף: קומה:","name:en":"HaHistadrut/Kiryat Ata Junction","source":"israel_gtfs","gtfs:verified":"no","highway":"bus_stop","name:he":"מחלף מוטה גור"}},"gtfs":{"lat":32.810759,"lon":35.070003,"tags":{"ref":"47407","name:he":"ההסתדרות/צומת קרית אתא","description":"רחוב:שדרות ההסתדרות עיר: חיפה רציף: קומה:","name:en":"HaHistadrut/Kiryat Ata Junction","name:ar":"ههِستدروت/ مفرق كريات آتا"}}}
{"ref":"47418","extra":{"discussion":null,"osmId":1802998132},"osm":{"lat":32.4427162,"lon":34.9155473,"tags":{"name:ar":"مدرسة تحخموني/عَفجين","ref":"47418","name":"בית ספר תחכמוני/עפגין","description":"רחוב:יצחק כושי עפגין 7 עיר: חדרה רציף: קומה:","name:en":"Tachkemoni School/Afgin","source":"israel_gtfs","gtfs:verified":"no","highway":"bus_stop","name:he":"בית ספר תחכמוני/עפגין"}},"gtfs":{"lat":32.442579,"lon":34.915472,"tags":{"ref":"47418","name:he":"בית ספר תחכמוני/עפגין","description":"רחוב:יצחק כושי עפגין 7 עיר: חדרה רציף: קומה:","name:en":"Tachkemoni School/Afgin","name:ar":"مدرسة تحخموني/عَفجين"}}}
{"ref":"50367","extra":{"discussion":null,"osmId":1803095496},"osm":{"lat":32.686623,"lon":35.276416,"tags":{"name:ar":"301/303","ref":"50367","name":"301/303","description":"רחוב:301 13 עיר: יפיע רציף: קומה:","name:en":"301/303","source":"israel_gtfs","gtfs:verified":"no","highway":"bus_stop"}},"gtfs":{"lat":32.686623,"lon":35.276416,"tags":{"ref":"50367","name:he":"301/303","description":"רחוב:301 13 עיר: יפיע רציף: קומה:","name:en":"301/303","name:ar":"301/303"}}}
{"ref":"50370","extra":{"discussion":null,"osmId":1803095404},"osm":{"lat":32.678002,"lon":35.274031,"tags":{"name:ar":"201/221","ref":"50370","name":"201/221","description":"רחוב:201 50 עיר: יפיע רציף: קומה:","name:en":"201/221","source":"israel_gtfs","gtfs:verified":"no","highway":"bus_stop"}},"gtfs":{"lat":32.678002,"lon":35.274031,"tags":{"ref":"50370","name:he":"201/221","description":"רחוב:201 50 עיר: יפיע רציף: קומה:","name:en":"201/221","name:ar":"201/221"}}}
{"ref":"50376","extra":{"discussion":null,"osmId":1803095407},"osm":{"lat":32.680742,"lon":35.274725,"tags":{"name:ar":"201/418","ref":"50376","name":"201/418","description":"רחוב:201 21 עיר: יפיע רציף: קומה:","name:en":"201/418","source":"israel_gtfs","gtfs:verified":"no","highway":"bus_stop"}},"gtfs":{"lat":32.680742,"lon":35.274725,"tags":{"ref":"50376","name:he":"201/418","description":"רחוב:201 21 עיר: יפיע רציף: קומה:","name:en":"201/418","name:ar":"201/418"}}}
{"ref":"50832","extra":{"discussion":null,"osmId":1803095992},"osm":{"lat":32.989831,"lon":35.321259,"tags":{"name:ar":"864/8655","ref":"50832","name":"864/8655","description":"רחוב:864 עיר: מעלה יוסף רציף: קומה:","name:en":"864/8655","source":"israel_gtfs","gtfs:verified":"no","highway":"bus_stop"}},"gtfs":{"lat":32.989831,"lon":35.321259,"tags":{"ref":"50832","name:he":"864/8655","description":"רחוב:864 עיר: מעלה יוסף רציף: קומה:","name:en":"864/8655","name:ar":"864/8655"}}}
{"ref":"50887","extra":{"discussion":null,"osmId":1803095985},"osm":{"lat":32.935937,"lon":35.35318,"tags":{"name:ar":"85/8566","ref":"50887","name":"85/8566","description":"רחוב:85 עיר: סאג'ור רציף: קומה:","name:en":"85/8566","source":"israel_gtfs","gtfs:verified":"no","highway":"bus_stop"}},"gtfs":{"lat":32.935937,"lon":35.35318,"tags":{"ref":"50887","name:he":"85/8566","description":"רחוב:85 עיר: סאג'ור רציף: קומה:","name:en":"85/8566","name:ar":"85/8566"}}}
{"ref":"50903","extra":{"discussion":null,"osmId":1803056935},"osm":{"lat":33.0467969,"lon":35.3642149,"tags":{"name:ar":"تفرّع متات","ref":"50903","name":"מסעף מתת","description":"רחוב:899 עיר: מעלה יוסף רציף: קומה:","name:en":"Matat Intersection","source":"israel_gtfs","gtfs:verified":"no","highway":"bus_stop","name:he":"מסעף מתת"}},"gtfs":{"lat":33.046572,"lon":35.364158,"tags":{"ref":"50903","name:he":"מסעף מתת","description":"רחוב:899 עיר: מעלה יוסף רציף: קומה:","name:en":"Matat Intersection","name:ar":"تفرّع متات"}}}
{"ref":"50908","extra":{"discussion":null,"osmId":1803095283},"osm":{"lat":32.687083,"lon":35.284404,"tags":{"name:ar":"1006/1041","ref":"50908","name":"1006/1041","description":"רחוב:1006 36 עיר: נצרת רציף: קומה:","name:en":"1006/1041","source":"israel_gtfs","gtfs:verified":"no","highway":"bus_stop"}},"gtfs":{"lat":32.687083,"lon":35.284404,"tags":{"ref":"50908","name:he":"1006/1041","description":"רחוב:1006 36 עיר: נצרת רציף: קומה:","name:en":"1006/1041","name:ar":"1006/1041"}}}
{"ref":"50916","extra":{"discussion":null,"osmId":1803095489},"osm":{"lat":32.690418,"lon":35.296574,"tags":{"name:ar":"3008/3009","ref":"50916","name":"3008/3009","description":"רחוב:3008 28 עיר: נצרת רציף: קומה:","name:en":"3008/3009","source":"israel_gtfs","gtfs:verified":"no","highway":"bus_stop"}},"gtfs":{"lat":32.690418,"lon":35.296574,"tags":{"ref":"50916","name:he":"3008/3009","description":"רחוב:3008 28 עיר: נצרת רציף: קומה:","name:en":"3008/3009","name:ar":"3008/3009"}}}
{"ref":"50948","extra":{"discussion":null,"osmId":1803095556},"osm":{"lat":32.698141,"lon":35.291427,"tags":{"name:ar":"5070/5077","ref":"50948","name":"5070/5077","description":"רחוב:5070 5 עיר: נצרת רציף: קומה:","name:en":"5070/5077","source":"israel_gtfs","gtfs:verified":"no","highway":"bus_stop"}},"gtfs":{"lat":32.698141,"lon":35.291427,"tags":{"ref":"50948","name:he":"5070/5077","description":"רחוב:5070 5 עיר: נצרת רציף: קומה:","name:en":"5070/5077","name:ar":"5070/5077"}}}
{"ref":"50953","extra":{"discussion":null,"osmId":1803095539},"osm":{"lat":32.706037,"lon":35.288399,"tags":{"name:ar":"5021/5026","ref":"50953","name":"5021/5026","description":"רחוב:5026 8 עיר: נצרת רציף: קומה:","name:en":"5021/5026","source":"israel_gtfs","gtfs:verified":"no","highway":"bus_stop"}},"gtfs":{"lat":32.706037,"lon":35.288399,"tags":{"ref":"50953","name:he":"5021/5026","description":"רחוב:5026 8 עיר: נצרת רציף: קומה:","name:en":"5021/5026","name:ar":"5021/5026"}}}
{"ref":"50954","extra":{"discussion":null,"osmId":1803095551},"osm":{"lat":32.707087,"lon":35.286385,"tags":{"name:ar":"5029/5026","ref":"50954","name":"5029/5026","description":"רחוב:5026 28 עיר: נצרת רציף: קומה:","name:en":"5029/5026","source":"israel_gtfs","gtfs:verified":"no","highway":"bus_stop"}},"gtfs":{"lat":32.707087,"lon":35.286385,"tags":{"ref":"50954","name:he":"5029/5026","description":"רחוב:5026 28 עיר: נצרת רציף: קומה:","name:en":"5029/5026","name:ar":"5029/5026"}}}
{"ref":"50986","extra":{"discussion":null,"osmId":1803095552},"osm":{"lat":32.70281,"lon":35.284299,"tags":{"name:ar":"5055/5048","ref":"50986","name":"5055/5048","description":"רחוב:5048 עיר: נצרת רציף: קומה:","name:en":"5055/5048","source":"israel_gtfs","gtfs:verified":"no","highway":"bus_stop"}},"gtfs":{"lat":32.70281,"lon":35.284299,"tags":{"ref":"50986","name:he":"5055/5048","description":"רחוב:5048 עיר: נצרת רציף: קומה:","name:en":"5055/5048","name:ar":"5055/5048"}}}
{"ref":"50988","extra":{"discussion":null,"osmId":1803095537},"osm":{"lat":32.705246,"lon":35.292786,"tags":{"name:ar":"5005/5007","ref":"50988","name":"5005/5007","description":"רחוב:5005 17 עיר: נצרת רציף: קומה:","name:en":"5005/5007","source":"israel_gtfs","gtfs:verified":"no","highway":"bus_stop"}},"gtfs":{"lat":32.705246,"lon":35.292786,"tags":{"ref":"50988","name:he":"5005/5007","description":"רחוב:5005 17 עיר: נצרת רציף: קומה:","name:en":"5005/5007","name:ar":"5005/5007"}}}
{"ref":"50996","extra":{"discussion":null,"osmId":1803095766},"osm":{"lat":32.711976,"lon":35.299562,"tags":{"name:ar":"7012/7083","ref":"50996","name":"7012/7083","description":"רחוב:7012 15 עיר: נצרת רציף: קומה:","name:en":"7012/7083","source":"israel_gtfs","gtfs:verified":"no","highway":"bus_stop"}},"gtfs":{"lat":32.711976,"lon":35.299562,"tags":{"ref":"50996","name:he":"7012/7083","description":"רחוב:7012 15 עיר: נצרת רציף: קומה:","name:en":"7012/7083","name:ar":"7012/7083"}}}
{"ref":"51006","extra":{"discussion":null,"osmId":1803036422},"osm":{"lat":32.996868,"lon":35.487861,"tags":{"name:ar":"ح. ع. زيتيم","ref":"51006","name":"מחווה אלון","description":"רחוב:886 עיר: מרום הגליל רציף: קומה:","name:en":"Ein Zeitim Parking lot","source":"israel_gtfs","gtfs:verified":"no","highway":"bus_stop","name:he":"מחווה אלון"}},"gtfs":{"lat":32.996868,"lon":35.487861,"tags":{"ref":"51006","name:he":"ח.ע.זיתים","description":"רחוב:886 עיר: מרום הגליל רציף: קומה:","name:en":"Ein Zeitim Parking lot","name:ar":"ح. ع. زيتيم"}}}
{"ref":"51010","extra":{"discussion":null,"osmId":1803036423},"osm":{"lat":32.997874,"lon":35.488378,"tags":{"name:ar":"ح. ع. زيتيم","ref":"51010","name":"מחווה אלון","description":"רחוב:886 עיר: מרום הגליל רציף: קומה:","name:en":"Ein Zeitim Parking lot","source":"israel_gtfs","gtfs:verified":"no","highway":"bus_stop","name:he":"מחווה אלון"}},"gtfs":{"lat":32.997874,"lon":35.488378,"tags":{"ref":"51010","name:he":"ח.ע.זיתים","description":"רחוב:886 עיר: מרום הגליל רציף: קומה:","name:en":"Ein Zeitim Parking lot","name:ar":"ح. ع. زيتيم"}}}
{"ref":"51011","extra":{"discussion":null,"osmId":1803095495},"osm":{"lat":32.690387,"lon":35.294563,"tags":{"name:ar":"3008/3100","ref":"51011","name":"3008/3100","description":"רחוב:3008 16 עיר: נצרת רציף: קומה:","name:en":"3008/3100","source":"israel_gtfs","gtfs:verified":"no","highway":"bus_stop"}},"gtfs":{"lat":32.690387,"lon":35.294563,"tags":{"ref":"51011","name:he":"3008/3100","description":"רחוב:3008 16 עיר: נצרת רציף: קומה:","name:en":"3008/3100","name:ar":"3008/3100"}}}
{"ref":"51359","extra":{"discussion":null,"osmId":1802997768},"osm":{"lat":32.9791605,"lon":35.5408212,"tags":{"name:ar":"شلومو بن يوسف/هراڤ عزيزي ديعي","ref":"51359","name":"שלמה בן יוסף/הרב עזיזי דיעי","description":"רחוב:שלמה בן יוסף 15 עיר: חצור הגלילית רציף: קומה:","name:en":"Shlomo Ben Yosef/HaRav Azizi De'i","source":"israel_gtfs","gtfs:verified":"no","highway":"bus_stop","name:he":"שלמה בן יוסף/הרב עזיזי דיעי"}},"gtfs":{"lat":32.979183,"lon":35.540789,"tags":{"ref":"51359","name:he":"שלמה בן יוסף/הרב עזיזי דיעי","description":"רחוב:שלמה בן יוסף 15 עיר: חצור הגלילית רציף: קומה:","name:en":"Shlomo Ben Yosef/HaRav Azizi De'i","name:ar":"شلومو بن يوسف/هراڤ عزيزي ديعي"}}}
{"ref":"51505","extra":{"discussion":null,"osmId":1803013851},"osm":{"lat":33.0784285,"lon":35.1562465,"tags":{"name:ar":"هئيلا/هَألون","ref":"51505","name":"האלה/האלון","description":"רחוב:האלון 3 עיר: שלומי רציף: קומה:","name:en":"Ha'Ela/Ha'Alon","source":"israel_gtfs","gtfs:verified":"no","highway":"bus_stop","name:he":"האלה/האלון"}},"gtfs":{"lat":33.078388,"lon":35.156335,"tags":{"ref":"51505","name:he":"האלה/האלון","description":"רחוב:האלון 3 עיר: שלומי רציף: קומה:","name:en":"Ha'Ela/Ha'Alon","name:ar":"هئيلا/هَألون"}}}
{"ref":"51652","extra":{"discussion":null,"osmId":1803095957},"osm":{"lat":32.714567,"lon":35.304616,"tags":{"name:ar":"8015/1029","ref":"51652","name":"8015/1029","description":"רחוב:8015 17 עיר: נצרת רציף: קומה:","name:en":"8015/1029","source":"israel_gtfs","gtfs:verified":"no","highway":"bus_stop"}},"gtfs":{"lat":32.714567,"lon":35.304616,"tags":{"ref":"51652","name:he":"8015/1029","description":"רחוב:8015 17 עיר: נצרת רציף: קומה:","name:en":"8015/1029","name:ar":"8015/1029"}}}
{"ref":"51654","extra":{"discussion":null,"osmId":1803095960},"osm":{"lat":32.715897,"lon":35.306266,"tags":{"name:ar":"8015/1029","ref":"51654","name":"8015/1029","description":"רחוב: עיר: ריינה רציף: קומה:","name:en":"8015/1029","source":"israel_gtfs","gtfs:verified":"no","highway":"bus_stop"}},"gtfs":{"lat":32.715897,"lon":35.306266,"tags":{"ref":"51654","name:he":"8015/1029","description":"רחוב: עיר: ריינה רציף: קומה:","name:en":"8015/1029","name:ar":"8015/1029"}}}
{"ref":"52153","extra":{"discussion":null,"osmId":1803095289},"osm":{"lat":32.692484,"lon":35.288103,"tags":{"name:ar":"1010/1190","ref":"52153","name":"1010/1190","description":"רחוב:1010 10 עיר: נצרת רציף: קומה:","name:en":"1010/1190","source":"israel_gtfs","gtfs:verified":"no","highway":"bus_stop"}},"gtfs":{"lat":32.692484,"lon":35.288103,"tags":{"ref":"52153","name:he":"1010/1190","description":"רחוב:1010 10 עיר: נצרת רציף: קומה:","name:en":"1010/1190","name:ar":"1010/1190"}}}
{"ref":"52158","extra":{"discussion":null,"osmId":1803095296},"osm":{"lat":32.684344,"lon":35.275488,"tags":{"name:ar":"130/121","ref":"52158","name":"130/121","description":"רחוב:130 5 עיר: יפיע רציף: קומה:","name:en":"130/121","source":"israel_gtfs","gtfs:verified":"no","highway":"bus_stop"}},"gtfs":{"lat":32.684344,"lon":35.275488,"tags":{"ref":"52158","name:he":"130/121","description":"רחוב:130 5 עיר: יפיע רציף: קומה:","name:en":"130/121","name:ar":"130/121"}}}
{"ref":"52193","extra":{"discussion":null,"osmId":1803095853},"osm":{"lat":32.713613,"lon":35.282672,"tags":{"name:ar":"7059/7061","ref":"52193","name":"7059/7061","description":"רחוב:7061 10 עיר: נצרת רציף: קומה:","name:en":"7059/7061","source":"israel_gtfs","gtfs:verified":"no","highway":"bus_stop"}},"gtfs":{"lat":32.713613,"lon":35.282672,"tags":{"ref":"52193","name:he":"7059/7061","description":"רחוב:7061 10 עיר: נצרת רציף: קומה:","name:en":"7059/7061","name:ar":"7059/7061"}}}
{"ref":"52199","extra":{"discussion":null,"osmId":1803095874},"osm":{"lat":32.713725,"lon":35.284008,"tags":{"name:ar":"7063/7061","ref":"52199","name":"7063/7061","description":"רחוב:7061 34 עיר: נצרת רציף: קומה:","name:en":"7063/7061","source":"israel_gtfs","gtfs:verified":"no","highway":"bus_stop"}},"gtfs":{"lat":32.713725,"lon":35.284008,"tags":{"ref":"52199","name:he":"7063/7061","description":"רחוב:7061 34 עיר: נצרת רציף: קומה:","name:en":"7063/7061","name:ar":"7063/7061"}}}
{"ref":"52200","extra":{"discussion":null,"osmId":1803095720},"osm":{"lat":32.713948,"lon":35.283667,"tags":{"name:ar":"7001/7061","ref":"52200","name":"7001/7061","description":"רחוב:7061 38 עיר: נצרת רציף: קומה:","name:en":"7001/7061","source":"israel_gtfs","gtfs:verified":"no","highway":"bus_stop"}},"gtfs":{"lat":32.713948,"lon":35.283667,"tags":{"ref":"52200","name:he":"7001/7061","description":"רחוב:7061 38 עיר: נצרת רציף: קומה:","name:en":"7001/7061","name:ar":"7001/7061"}}}
{"ref":"52201","extra":{"discussion":null,"osmId":1803095867},"osm":{"lat":32.715045,"lon":35.281758,"tags":{"name:ar":"7061/7074","ref":"52201","name":"7061/7074","description":"רחוב:7061 54 עיר: נצרת רציף: קומה:","name:en":"7061/7074","source":"israel_gtfs","gtfs:verified":"no","highway":"bus_stop"}},"gtfs":{"lat":32.715045,"lon":35.281758,"tags":{"ref":"52201","name:he":"7061/7074","description":"רחוב:7061 54 עיר: נצרת רציף: קומה:","name:en":"7061/7074","name:ar":"7061/7074"}}}
{"ref":"52202","extra":{"discussion":null,"osmId":1803095726},"osm":{"lat":32.714246,"lon":35.282981,"tags":{"name:ar":"7001/7061","ref":"52202","name":"7001/7061","description":"רחוב:7061 43 עיר: נצרת רציף: קומה:","name:en":"7001/7061","source":"israel_gtfs","gtfs:verified":"no","highway":"bus_stop"}},"gtfs":{"lat":32.714246,"lon":35.282981,"tags":{"ref":"52202","name:he":"7001/7061","description":"רחוב:7061 43 עיר: נצרת רציף: קומה:","name:en":"7001/7061","name:ar":"7001/7061"}}}
{"ref":"52203","extra":{"discussion":null,"osmId":1803095859},"osm":{"lat":32.713839,"lon":35.281517,"tags":{"name:ar":"7059/7061","ref":"52203","name":"7059/7061","description":"רחוב:7061 3 עיר: נצרת רציף: קומה:","name:en":"7059/7061","source":"israel_gtfs","gtfs:verified":"no","highway":"bus_stop"}},"gtfs":{"lat":32.713839,"lon":35.281517,"tags":{"ref":"52203","name:he":"7059/7061","description":"רחוב:7061 3 עיר: נצרת רציף: קומה:","name:en":"7059/7061","name:ar":"7059/7061"}}}
{"ref":"52355","extra":{"discussion":null,"osmId":1803095303},"osm":{"lat":32.80688,"lon":35.171033,"tags":{"name:ar":"200/225","ref":"52355","name":"200/225","description":"רחוב:איברהים נמר חוסיין 43 עיר: שפרעם רציף: קומה:","name:en":"200/225","source":"israel_gtfs","gtfs:verified":"no","highway":"bus_stop"}},"gtfs":{"lat":32.80688,"lon":35.171033,"tags":{"ref":"52355","name:he":"200/225","description":"רחוב:איברהים נמר חוסיין 43 עיר: שפרעם רציף: קומה:","name:en":"200/225","name:ar":"200/225"}}}
{"ref":"52663","extra":{"discussion":null,"osmId":1803095528},"osm":{"lat":32.683588,"lon":35.275748,"tags":{"name:ar":"421/300","ref":"52663","name":"421/300","description":"רחוב:300 50 עיר: יפיע רציף: קומה:","name:en":"421/300","source":"israel_gtfs","gtfs:verified":"no","highway":"bus_stop"}},"gtfs":{"lat":32.683588,"lon":35.275748,"tags":{"ref":"52663","name:he":"421/300","description":"רחוב:300 50 עיר: יפיע רציף: קומה:","name:en":"421/300","name:ar":"421/300"}}}
{"ref":"52664","extra":{"discussion":null,"osmId":1803095526},"osm":{"lat":32.68708,"lon":35.277788,"tags":{"name:ar":"402/300","ref":"52664","name":"402/300","description":"רחוב:300 88 עיר: יפיע רציף: קומה:","name:en":"402/300","source":"israel_gtfs","gtfs:verified":"no","highway":"bus_stop"}},"gtfs":{"lat":32.68708,"lon":35.277788,"tags":{"ref":"52664","name:he":"402/300","description":"רחוב:300 88 עיר: יפיע רציף: קומה:","name:en":"402/300","name:ar":"402/300"}}}
{"ref":"53177","extra":{"discussion":null,"osmId":1803095420},"osm":{"lat":32.80719,"lon":35.170574,"tags":{"name:ar":"225/200","ref":"53177","name":"225/200","description":"רחוב:איברהים נמר חוסיין 34 עיר: שפרעם רציף: קומה:","name:en":"225/200","source":"israel_gtfs","gtfs:verified":"no","highway":"bus_stop"}},"gtfs":{"lat":32.80719,"lon":35.170574,"tags":{"ref":"53177","name:he":"225/200","description":"רחוב:איברהים נמר חוסיין 34 עיר: שפרעם רציף: קומה:","name:en":"225/200","name:ar":"225/200"}}}
{"ref":"53179","extra":{"discussion":null,"osmId":1803095302},"osm":{"lat":32.805891,"lon":35.171608,"tags":{"name:ar":"200/206","ref":"53179","name":"200/206","description":"רחוב:איברהים נמר חוסיין 50 עיר: שפרעם רציף: קומה:","name:en":"200/206","source":"israel_gtfs","gtfs:verified":"no","highway":"bus_stop"}},"gtfs":{"lat":32.805891,"lon":35.171608,"tags":{"ref":"53179","name:he":"200/206","description":"רחוב:איברהים נמר חוסיין 50 עיר: שפרעם רציף: קומה:","name:en":"200/206","name:ar":"200/206"}}}
{"ref":"53188","extra":{"discussion":null,"osmId":1803056465},"osm":{"lat":32.783279,"lon":35.17254,"tags":{"name:ar":"تفرّع هردوف","ref":"53188","shelter":"yes","name":"מצפה עדי","description":"רחוב: עיר: עדי רציף: קומה:","name:en":"Harduf Intersection","source":"israel_gtfs","gtfs:verified":"no","highway":"bus_stop","name:he":"מצפה עדי","operator":"אגד, אומני אקספרס"}},"gtfs":{"lat":32.783279,"lon":35.17254,"tags":{"ref":"53188","name:he":"מסעף הרדוף","description":"רחוב: עיר: עדי רציף: קומה:","name:en":"Harduf Intersection","name:ar":"تفرّع هردوف"}}}
{"ref":"53196","extra":{"discussion":null,"osmId":1803095424},"osm":{"lat":32.815622,"lon":35.169415,"tags":{"name:ar":"240/260","ref":"53196","name":"240/260","description":"רחוב:אבו זר אלגפארי 57 עיר: שפרעם רציף: קומה:","name:en":"240/260","source":"israel_gtfs","gtfs:verified":"no","highway":"bus_stop"}},"gtfs":{"lat":32.815622,"lon":35.169415,"tags":{"ref":"53196","name:he":"240/260","description":"רחוב:אבו זר אלגפארי 57 עיר: שפרעם רציף: קומה:","name:en":"240/260","name:ar":"240/260"}}}
{"ref":"53197","extra":{"discussion":null,"osmId":1803095441},"osm":{"lat":32.815802,"lon":35.163886,"tags":{"name:ar":"250/260","ref":"53197","name":"250/260","description":"רחוב:אבו זר אלגפארי 3 עיר: שפרעם רציף: קומה:","name:en":"250/260","source":"israel_gtfs","gtfs:verified":"no","highway":"bus_stop"}},"gtfs":{"lat":32.815802,"lon":35.163886,"tags":{"ref":"53197","name:he":"250/260","description":"רחוב:אבו זר אלגפארי 3 עיר: שפרעם רציף: קומה:","name:en":"250/260","name:ar":"250/260"}}}
{"ref":"53199","extra":{"discussion":null,"osmId":1803095432},"osm":{"lat":32.812408,"lon":35.164227,"tags":{"name:ar":"250/251","ref":"53199","name":"250/251","description":"רחוב:סולטאן פאשא אלאטרש 9 עיר: שפרעם רציף: קומה:","name:en":"250/251","source":"israel_gtfs","gtfs:verified":"no","highway":"bus_stop"}},"gtfs":{"lat":32.812408,"lon":35.164227,"tags":{"ref":"53199","name:he":"250/251","description":"רחוב:סולטאן פאשא אלאטרש 9 עיר: שפרעם רציף: קומה:","name:en":"250/251","name:ar":"250/251"}}}
{"ref":"53200","extra":{"discussion":null,"osmId":1803095304},"osm":{"lat":32.809426,"lon":35.167548,"tags":{"name:ar":"200/240","ref":"53200","name":"200/240","description":"רחוב:אלפואר 4 עיר: שפרעם רציף: קומה:","name:en":"200/240","source":"israel_gtfs","gtfs:verified":"no","highway":"bus_stop"}},"gtfs":{"lat":32.809426,"lon":35.167548,"tags":{"ref":"53200","name:he":"200/240","description":"רחוב:אלפואר 4 עיר: שפרעם רציף: קומה:","name:en":"200/240","name:ar":"200/240"}}}
{"ref":"53504","extra":{"discussion":null,"osmId":1803085338},"osm":{"lat":32.91409,"lon":35.290764,"tags":{"ref":"53504","name":"שגיא/קק״ל","description":"רחוב:שגיא עיר: כרמיאל רציף: קומה:","source":"israel_gtfs","gtfs:verified":"no","highway":"bus_stop","name:he":"שגיא/קק״ל"}},"gtfs":{"lat":32.91409,"lon":35.290764,"tags":{"ref":"53504","name:he":"שגיא/קק''ל","description":"רחוב:שגיא עיר: כרמיאל רציף: קומה:"}}}
{"ref":"53676","extra":{"discussion":null,"osmId":1803071822},"osm":{"lat":33.11368,"lon":35.555949,"tags":{"name:ar":"مفرق ييشَع","ref":"53676","name":"צומת יושע","description":"רחוב:899 עיר: מבואות החרמון רציף: קומה:","name:en":"Yesha Junction","source":"israel_gtfs","gtfs:verified":"no","highway":"bus_stop","name:he":"צומת יושע"}},"gtfs":{"lat":33.11368,"lon":35.555949,"tags":{"ref":"53676","name:he":"צומת ישע","description":"רחוב:899 עיר: מבואות החרמון רציף: קומה:","name:en":"Yesha Junction","name:ar":"مفرق ييشَع"}}}
{"ref":"53798","extra":{"discussion":null,"osmId":1803095321},"osm":{"lat":32.679297,"lon":35.273695,"tags":{"name:ar":"201/203","ref":"53798","name":"201/203","description":"רחוב:201 38 עיר: יפיע רציף: קומה:","name:en":"201/203","source":"israel_gtfs","gtfs:verified":"no","highway":"bus_stop"}},"gtfs":{"lat":32.679297,"lon":35.273695,"tags":{"ref":"53798","name:he":"201/203","description":"רחוב:201 38 עיר: יפיע רציף: קומה:","name:en":"201/203","name:ar":"201/203"}}}
{"ref":"53799","extra":{"discussion":null,"osmId":1803095323},"osm":{"lat":32.679842,"lon":35.274042,"tags":{"name:ar":"201/203","ref":"53799","name":"201/203","description":"רחוב:201 31 עיר: יפיע רציף: קומה:","name:en":"201/203","source":"israel_gtfs","gtfs:verified":"no","highway":"bus_stop"}},"gtfs":{"lat":32.679842,"lon":35.274042,"tags":{"ref":"53799","name:he":"201/203","description":"רחוב:201 31 עיר: יפיע רציף: קומה:","name:en":"201/203","name:ar":"201/203"}}}
{"ref":"53800","extra":{"discussion":null,"osmId":1803095400},"osm":{"lat":32.680273,"lon":35.274237,"tags":{"name:ar":"201/203","ref":"53800","name":"201/203","description":"רחוב:201 24 עיר: יפיע רציף: קומה:","name:en":"201/203","source":"israel_gtfs","gtfs:verified":"no","highway":"bus_stop"}},"gtfs":{"lat":32.680273,"lon":35.274237,"tags":{"ref":"53800","name:he":"201/203","description":"רחוב:201 24 עיר: יפיע רציף: קומה:","name:en":"201/203","name:ar":"201/203"}}}
{"ref":"53801","extra":{"discussion":null,"osmId":1803095411},"osm":{"lat":32.676127,"lon":35.274403,"tags":{"name:ar":"201/609","ref":"53801","name":"201/609","description":"רחוב:609 2 עיר: יפיע רציף: קומה:","name:en":"201/609","source":"israel_gtfs","gtfs:verified":"no","highway":"bus_stop"}},"gtfs":{"lat":32.676127,"lon":35.274403,"tags":{"ref":"53801","name:he":"201/609","description":"רחוב:609 2 עיר: יפיע רציף: קומה:","name:en":"201/609","name:ar":"201/609"}}}
{"ref":"53804","extra":{"discussion":null,"osmId":1803095685},"osm":{"lat":32.677081,"lon":35.276027,"tags":{"name:ar":"601/605","ref":"53804","name":"601/605","description":"רחוב:601 21 עיר: יפיע רציף: קומה:","name:en":"601/605","source":"israel_gtfs","gtfs:verified":"no","highway":"bus_stop"}},"gtfs":{"lat":32.677081,"lon":35.276027,"tags":{"ref":"53804","name:he":"601/605","description":"רחוב:601 21 עיר: יפיע רציף: קומה:","name:en":"601/605","name:ar":"601/605"}}}
{"ref":"53806","extra":{"discussion":null,"osmId":1803095497},"osm":{"lat":32.689096,"lon":35.276198,"tags":{"name:ar":"301/305","ref":"53806","name":"301/305","description":"רחוב:301 39 עיר: יפיע רציף: קומה:","name:en":"301/305","source":"israel_gtfs","gtfs:verified":"no","highway":"bus_stop"}},"gtfs":{"lat":32.689096,"lon":35.276198,"tags":{"ref":"53806","name:he":"301/305","description":"רחוב:301 39 עיר: יפיע רציף: קומה:","name:en":"301/305","name:ar":"301/305"}}}
{"ref":"53807","extra":{"discussion":null,"osmId":1803095686},"osm":{"lat":32.675494,"lon":35.276241,"tags":{"name:ar":"609/616","ref":"53807","name":"609/616","description":"רחוב:609 16 עיר: יפיע רציף: קומה:","name:en":"609/616","source":"israel_gtfs","gtfs:verified":"no","highway":"bus_stop"}},"gtfs":{"lat":32.675494,"lon":35.276241,"tags":{"ref":"53807","name:he":"609/616","description":"רחוב:609 16 עיר: יפיע רציף: קומה:","name:en":"609/616","name:ar":"609/616"}}}
{"ref":"53808","extra":{"discussion":null,"osmId":1803095498},"osm":{"lat":32.686204,"lon":35.276391,"tags":{"name:ar":"301/313","ref":"53808","name":"301/313","description":"רחוב:301 16 עיר: יפיע רציף: קומה:","name:en":"301/313","source":"israel_gtfs","gtfs:verified":"no","highway":"bus_stop"}},"gtfs":{"lat":32.686204,"lon":35.276391,"tags":{"ref":"53808","name:he":"301/313","description":"רחוב:301 16 עיר: יפיע רציף: קומה:","name:en":"301/313","name:ar":"301/313"}}}
{"ref":"53814","extra":{"discussion":null,"osmId":1803096023},"osm":{"lat":32.708641,"lon":35.281313,"tags":{"name:ar":"9004/5026","ref":"53814","name":"9004/5026","description":"רחוב: עיר: נצרת רציף: קומה:","name:en":"9004/5026","source":"israel_gtfs","gtfs:verified":"no","highway":"bus_stop"}},"gtfs":{"lat":32.708641,"lon":35.281313,"tags":{"ref":"53814","name:he":"9004/5026","description":"רחוב: עיר: נצרת רציף: קומה:","name:en":"9004/5026","name:ar":"9004/5026"}}}
{"ref":"53819","extra":{"discussion":null,"osmId":1803095543},"osm":{"lat":32.708129,"lon":35.28324,"tags":{"name:ar":"5026/5032","ref":"53819","name":"5026/5032","description":"רחוב:5026 53 עיר: נצרת רציף: קומה:","name:en":"5026/5032","source":"israel_gtfs","gtfs:verified":"no","highway":"bus_stop"}},"gtfs":{"lat":32.708129,"lon":35.28324,"tags":{"ref":"53819","name:he":"5026/5032","description":"רחוב:5026 53 עיר: נצרת רציף: קומה:","name:en":"5026/5032","name:ar":"5026/5032"}}}
{"ref":"53830","extra":{"discussion":null,"osmId":1803095544},"osm":{"lat":32.708038,"lon":35.284375,"tags":{"name:ar":"5026/5039","ref":"53830","name":"5026/5039","description":"רחוב:5026 42 עיר: נצרת רציף: קומה:","name:en":"5026/5039","source":"israel_gtfs","gtfs:verified":"no","highway":"bus_stop"}},"gtfs":{"lat":32.708038,"lon":35.284375,"tags":{"ref":"53830","name:he":"5026/5039","description":"רחוב:5026 42 עיר: נצרת רציף: קומה:","name:en":"5026/5039","name:ar":"5026/5039"}}}
{"ref":"53831","extra":{"discussion":null,"osmId":1803095282},"osm":{"lat":32.685446,"lon":35.284552,"tags":{"name:ar":"1006/1040","ref":"53831","name":"1006/1040","description":"רחוב:1006 26 עיר: נצרת רציף: קומה:","name:en":"1006/1040","source":"israel_gtfs","gtfs:verified":"no","highway":"bus_stop"}},"gtfs":{"lat":32.685446,"lon":35.284552,"tags":{"ref":"53831","name:he":"1006/1040","description":"רחוב:1006 26 עיר: נצרת רציף: קומה:","name:en":"1006/1040","name:ar":"1006/1040"}}}
{"ref":"53842","extra":{"discussion":null,"osmId":1803095541},"osm":{"lat":32.707173,"lon":35.285901,"tags":{"name:ar":"5026/5029","ref":"53842","name":"5026/5029","description":"רחוב:5026 29 עיר: נצרת רציף: קומה:","name:en":"5026/5029","source":"israel_gtfs","gtfs:verified":"no","highway":"bus_stop"}},"gtfs":{"lat":32.707173,"lon":35.285901,"tags":{"ref":"53842","name:he":"5026/5029","description":"רחוב:5026 29 עיר: נצרת רציף: קומה:","name:en":"5026/5029","name:ar":"5026/5029"}}}
{"ref":"53857","extra":{"discussion":null,"osmId":1803095540},"osm":{"lat":32.706237,"lon":35.287855,"tags":{"name:ar":"5022/5026","ref":"53857","name":"5022/5026","description":"רחוב:5026 13 עיר: נצרת רציף: קומה:","name:en":"5022/5026","source":"israel_gtfs","gtfs:verified":"no","highway":"bus_stop"}},"gtfs":{"lat":32.706237,"lon":35.287855,"tags":{"ref":"53857","name:he":"5022/5026","description":"רחוב:5026 13 עיר: נצרת רציף: קומה:","name:en":"5022/5026","name:ar":"5022/5026"}}}
{"ref":"53859","extra":{"discussion":null,"osmId":1803095293},"osm":{"lat":32.683144,"lon":35.288189,"tags":{"name:ar":"1054/1066","ref":"53859","name":"1054/1066","description":"רחוב:1054 19 עיר: נצרת רציף: קומה:","name:en":"1054/1066","source":"israel_gtfs","gtfs:verified":"no","highway":"bus_stop"}},"gtfs":{"lat":32.683144,"lon":35.288189,"tags":{"ref":"53859","name:he":"1054/1066","description":"רחוב:1054 19 עיר: נצרת רציף: קומה:","name:en":"1054/1066","name:ar":"1054/1066"}}}
{"ref":"53864","extra":{"discussion":null,"osmId":1803095555},"osm":{"lat":32.698088,"lon":35.289467,"tags":{"name:ar":"5070/5075","ref":"53864","name":"5070/5075","description":"רחוב:5070 31 עיר: נצרת רציף: קומה:","name:en":"5070/5075","source":"israel_gtfs","gtfs:verified":"no","highway":"bus_stop"}},"gtfs":{"lat":32.698088,"lon":35.289467,"tags":{"ref":"53864","name:he":"5070/5075","description":"רחוב:5070 31 עיר: נצרת רציף: קומה:","name:en":"5070/5075","name:ar":"5070/5075"}}}
{"ref":"53865","extra":{"discussion":null,"osmId":1803095554},"osm":{"lat":32.697775,"lon":35.289589,"tags":{"name:ar":"5070/5068","ref":"53865","name":"5070/5068","description":"רחוב:5070 27 עיר: נצרת רציף: קומה:","name:en":"5070/5068","source":"israel_gtfs","gtfs:verified":"no","highway":"bus_stop"}},"gtfs":{"lat":32.697775,"lon":35.289589,"tags":{"ref":"53865","name:he":"5070/5068","description":"רחוב:5070 27 עיר: נצרת רציף: קומה:","name:en":"5070/5068","name:ar":"5070/5068"}}}
{"ref":"53884","extra":{"discussion":null,"osmId":1803095847},"osm":{"lat":32.717229,"lon":35.293186,"tags":{"name:ar":"7042/7040","ref":"53884","name":"7042/7040","description":"רחוב:7040 63 עיר: נצרת רציף: קומה:","name:en":"7042/7040","source":"israel_gtfs","gtfs:verified":"no","highway":"bus_stop"}},"gtfs":{"lat":32.717229,"lon":35.293186,"tags":{"ref":"53884","name:he":"7042/7040","description":"רחוב:7040 63 עיר: נצרת רציף: קומה:","name:en":"7042/7040","name:ar":"7042/7040"}}}
{"ref":"53887","extra":{"discussion":null,"osmId":1803095474},"osm":{"lat":32.69013,"lon":35.293465,"tags":{"name:ar":"3003/3008","ref":"53887","name":"3003/3008","description":"רחוב:3003 15 עיר: נצרת רציף: קומה:","name:en":"3003/3008","source":"israel_gtfs","gtfs:verified":"no","highway":"bus_stop"}},"gtfs":{"lat":32.69013,"lon":35.293465,"tags":{"ref":"53887","name:he":"3003/3008","description":"רחוב:3003 15 עיר: נצרת רציף: קומה:","name:en":"3003/3008","name:ar":"3003/3008"}}}
{"ref":"53892","extra":{"discussion":null,"osmId":1803095494},"osm":{"lat":32.690476,"lon":35.294503,"tags":{"name:ar":"3008/3100","ref":"53892","name":"3008/3100","description":"רחוב:3008 13 עיר: נצרת רציף: קומה:","name:en":"3008/3100","source":"israel_gtfs","gtfs:verified":"no","highway":"bus_stop"}},"gtfs":{"lat":32.690476,"lon":35.294503,"tags":{"ref":"53892","name:he":"3008/3100","description":"רחוב:3008 13 עיר: נצרת רציף: קומה:","name:en":"3008/3100","name:ar":"3008/3100"}}}
{"ref":"53895","extra":{"discussion":null,"osmId":1803095849},"osm":{"lat":32.716468,"lon":35.294626,"tags":{"name:ar":"7045/7040","ref":"53895","name":"7045/7040","description":"רחוב:7040 15 עיר: נצרת רציף: קומה:","name:en":"7045/7040","source":"israel_gtfs","gtfs:verified":"no","highway":"bus_stop"}},"gtfs":{"lat":32.716468,"lon":35.294626,"tags":{"ref":"53895","name:he":"7045/7040","description":"רחוב:7040 15 עיר: נצרת רציף: קומה:","name:en":"7045/7040","name:ar":"7045/7040"}}}
{"ref":"53900","extra":{"discussion":null,"osmId":1803095470},"osm":{"lat":32.688424,"lon":35.296361,"tags":{"name:ar":"3002/3006","ref":"53900","name":"3002/3006","description":"רחוב:3006 4 עיר: נצרת רציף: קומה:","name:en":"3002/3006","source":"israel_gtfs","gtfs:verified":"no","highway":"bus_stop"}},"gtfs":{"lat":32.688424,"lon":35.296361,"tags":{"ref":"53900","name:he":"3002/3006","description":"רחוב:3006 4 עיר: נצרת רציף: קומה:","name:en":"3002/3006","name:ar":"3002/3006"}}}
{"ref":"53902","extra":{"discussion":null,"osmId":1803095465},"osm":{"lat":32.688346,"lon":35.296688,"tags":{"name:ar":"3002/3006","ref":"53902","name":"3002/3006","description":"רחוב:3002 35 עיר: נצרת רציף: קומה:","name:en":"3002/3006","source":"israel_gtfs","gtfs:verified":"no","highway":"bus_stop"}},"gtfs":{"lat":32.688346,"lon":35.296688,"tags":{"ref":"53902","name:he":"3002/3006","description":"רחוב:3002 35 עיר: נצרת רציף: קומה:","name:en":"3002/3006","name:ar":"3002/3006"}}}
{"ref":"53909","extra":{"discussion":null,"osmId":1803095760},"osm":{"lat":32.71354,"lon":35.297881,"tags":{"name:ar":"7012/7015","ref":"53909","name":"7012/7015","description":"רחוב:7012 39 עיר: נצרת רציף: קומה:","name:en":"7012/7015","source":"israel_gtfs","gtfs:verified":"no","highway":"bus_stop"}},"gtfs":{"lat":32.71354,"lon":35.297881,"tags":{"ref":"53909","name:he":"7012/7015","description":"רחוב:7012 39 עיר: נצרת רציף: קומה:","name:en":"7012/7015","name:ar":"7012/7015"}}}
{"ref":"53914","extra":{"discussion":null,"osmId":1803095805},"osm":{"lat":32.711261,"lon":35.298378,"tags":{"name:ar":"7018/7106","ref":"53914","name":"7018/7106","description":"רחוב:7106 8 עיר: נצרת רציף: קומה:","name:en":"7018/7106","source":"israel_gtfs","gtfs:verified":"no","highway":"bus_stop"}},"gtfs":{"lat":32.711261,"lon":35.298378,"tags":{"ref":"53914","name:he":"7018/7106","description":"רחוב:7106 8 עיר: נצרת רציף: קומה:","name:en":"7018/7106","name:ar":"7018/7106"}}}
{"ref":"53942","extra":{"discussion":null,"osmId":1803095964},"osm":{"lat":32.714344,"lon":35.304325,"tags":{"name:ar":"8015/8013","ref":"53942","name":"8015/8013","description":"רחוב:8015 15 עיר: נצרת רציף: קומה:","name:en":"8015/8013","source":"israel_gtfs","gtfs:verified":"no","highway":"bus_stop"}},"gtfs":{"lat":32.714344,"lon":35.304325,"tags":{"ref":"53942","name:he":"8015/8013","description":"רחוב:8015 15 עיר: נצרת רציף: קומה:","name:en":"8015/8013","name:ar":"8015/8013"}}}
{"ref":"54199","extra":{"discussion":null,"osmId":5212232483},"osm":{"lat":32.5972759,"lon":35.1000732,"tags":{"name:ar":"مركز عين هَشوفيت","ref":"54199","name":"מרכז עין השופט","description":"רחוב: עיר: עין השופט רציף: קומה:","name:en":"En HaShofet Center","source":"israel_gtfs","gtfs:verified":"no","highway":"bus_stop","name:he":"מרכז עין השופט"}},"gtfs":{"lat":32.597117,"lon":35.100361,"tags":{"ref":"54199","name:he":"מרכז עין השופט","description":"רחוב: עיר: עין השופט רציף: קומה:","name:en":"En HaShofet Center","name:ar":"مركز عين هَشوفيت"}}}
{"ref":"54277","extra":{"discussion":null,"osmId":1803095905},"osm":{"lat":32.718808,"lon":35.29104,"tags":{"name:ar":"7086/7064","ref":"54277","name":"7086/7064","description":"רחוב:7064 67 עיר: נצרת רציף: קומה:","name:en":"7086/7064","source":"israel_gtfs","gtfs:verified":"no","highway":"bus_stop"}},"gtfs":{"lat":32.718808,"lon":35.29104,"tags":{"ref":"54277","name:he":"7086/7064","description":"רחוב:7064 67 עיר: נצרת רציף: קומה:","name:en":"7086/7064","name:ar":"7086/7064"}}}
{"ref":"54278","extra":{"discussion":null,"osmId":1803095912},"osm":{"lat":32.718904,"lon":35.291025,"tags":{"name:ar":"7086/7064","ref":"54278","name":"7086/7064","description":"רחוב:7064 64 עיר: נצרת רציף: קומה:","name:en":"7086/7064","source":"israel_gtfs","gtfs:verified":"no","highway":"bus_stop"}},"gtfs":{"lat":32.718904,"lon":35.291025,"tags":{"ref":"54278","name:he":"7086/7064","description":"רחוב:7064 64 עיר: נצרת רציף: קומה:","name:en":"7086/7064","name:ar":"7086/7064"}}}
{"ref":"54279","extra":{"discussion":null,"osmId":1803095896},"osm":{"lat":32.719156,"lon":35.294196,"tags":{"name:ar":"7064/7086","ref":"54279","name":"7064/7086","description":"רחוב:7064 45 עיר: נצרת רציף: קומה:","name:en":"7064/7086","source":"israel_gtfs","gtfs:verified":"no","highway":"bus_stop"}},"gtfs":{"lat":32.719156,"lon":35.294196,"tags":{"ref":"54279","name:he":"7064/7086","description":"רחוב:7064 45 עיר: נצרת רציף: קומה:","name:en":"7064/7086","name:ar":"7064/7086"}}}
{"ref":"54284","extra":{"discussion":null,"osmId":1803095538},"osm":{"lat":32.706703,"lon":35.292167,"tags":{"name:ar":"5005/5129","ref":"54284","name":"5005/5129","description":"רחוב:5005 14 עיר: נצרת רציף: קומה:","name:en":"5005/5129","source":"israel_gtfs","gtfs:verified":"no","highway":"bus_stop"}},"gtfs":{"lat":32.706703,"lon":35.292167,"tags":{"ref":"54284","name:he":"5005/5129","description":"רחוב:5005 14 עיר: נצרת רציף: קומה:","name:en":"5005/5129","name:ar":"5005/5129"}}}
{"ref":"54342","extra":{"discussion":null,"osmId":1803069738},"osm":{"lat":32.90413,"lon":35.634488,"tags":{"name:ar":"مفرق بيت تْسيْدا","ref":"54342","name":"צומת בית צידה","description":"רחוב:87 עיר: גולן רציף: קומה:","name:en":"Beit Zeida Junction","source":"israel_gtfs","gtfs:verified":"no","highway":"bus_stop","name:he":"צומת בית צידה"}},"gtfs":{"lat":32.90413,"lon":35.634488,"tags":{"ref":"54342","name:he":"צומת בית צידה","description":"רחוב:87 עיר: גולן רציף: קומה:","name:en":"Bethsaida Junction","name:ar":"مفرق بيت تْسيْدا"}}}
{"ref":"54343","extra":{"discussion":null,"osmId":1803069756},"osm":{"lat":32.904255,"lon":35.632978,"tags":{"name:ar":"مفرق بيت تْسيْدا","ref":"54343","name":"צומת בית צידה","description":"רחוב:87 עיר: גולן רציף: קומה:","name:en":"Beit Zeida Junction","source":"israel_gtfs","gtfs:verified":"no","highway":"bus_stop","name:he":"צומת בית צידה"}},"gtfs":{"lat":32.904255,"lon":35.632978,"tags":{"ref":"54343","name:he":"צומת בית צידה","description":"רחוב:87 עיר: גולן רציף: קומה:","name:en":"Bethsaida Junction","name:ar":"مفرق بيت تْسيْدا"}}}
{"ref":"54344","extra":{"discussion":null,"osmId":1803069761},"osm":{"lat":32.9047219,"lon":35.633836,"tags":{"name:ar":"مفرق بيت تْسيْدا","ref":"54344","name":"צומת בית צידה","description":"רחוב:888 עיר: גולן רציף: קומה:","name:en":"Beit Zeida Junction","source":"israel_gtfs","gtfs:verified":"no","highway":"bus_stop","name:he":"צומת בית צידה"}},"gtfs":{"lat":32.904718,"lon":35.633836,"tags":{"ref":"54344","name:he":"צומת בית צידה","description":"רחוב:888 עיר: גולן רציף: קומה:","name:en":"Bethsaida Junction","name:ar":"مفرق بيت تْسيْدا"}}}
{"ref":"54363","extra":{"discussion":null,"osmId":1803096077},"osm":{"lat":33.173077,"lon":35.642336,"tags":{"name:ar":"9779/918","ref":"54363","name":"9779/918","description":"רחוב:918 עיר: הגליל העליון רציף: קומה:","name:en":"9779/918","source":"israel_gtfs","gtfs:verified":"no","highway":"bus_stop"}},"gtfs":{"lat":33.173077,"lon":35.642336,"tags":{"ref":"54363","name:he":"9779/918","description":"רחוב:918 עיר: הגליל העליון רציף: קומה:","name:en":"9779/918","name:ar":"9779/918"}}}
{"ref":"54364","extra":{"discussion":null,"osmId":1803096081},"osm":{"lat":33.174011,"lon":35.643257,"tags":{"name:ar":"9779/918","ref":"54364","name":"9779/918","description":"רחוב:918 עיר: הגליל העליון רציף: קומה:","name:en":"9779/918","source":"israel_gtfs","gtfs:verified":"no","highway":"bus_stop"}},"gtfs":{"lat":33.174011,"lon":35.643257,"tags":{"ref":"54364","name:he":"9779/918","description":"רחוב:918 עיר: הגליל העליון רציף: קומה:","name:en":"9779/918","name:ar":"9779/918"}}}
{"ref":"54482","extra":{"discussion":null,"osmId":1803096085},"osm":{"lat":33.226793,"lon":35.757218,"tags":{"name:ar":"978/98","ref":"54482","name":"978/98","description":"רחוב:98 עיר: מסעדה רציף: קומה:","name:en":"978/98","source":"israel_gtfs","gtfs:verified":"no","highway":"bus_stop"}},"gtfs":{"lat":33.226793,"lon":35.757218,"tags":{"ref":"54482","name:he":"978/98","description":"רחוב:98 עיר: מסעדה רציף: קומה:","name:en":"978/98","name:ar":"978/98"}}}
{"ref":"54492","extra":{"discussion":null,"osmId":1803050740},"osm":{"lat":33.2592,"lon":35.757837,"tags":{"name:ar":"مجدل شمس/989","ref":"54492","name":"מג'דל שמס/989","description":"רחוב:989 עיר: גולן רציף: קומה:","name:en":"Majdal Shams/989","source":"israel_gtfs","gtfs:verified":"no","highway":"bus_stop","name:he":"מג'דל שמס/989"}},"gtfs":{"lat":33.2592,"lon":35.757837,"tags":{"ref":"54492","name:he":"מג'דל שאמס/989","description":"רחוב:989 עיר: גולן רציף: קומה:","name:en":"Majdal Shams/989","name:ar":"مجدل شمس/989"}}}
{"ref":"5453","extra":{"discussion":null,"osmId":1803076634},"osm":{"lat":31.775704,"lon":35.004392,"tags":{"name:ar":"مفرق شمشمون","ref":"5453","name":"מחלף שמשון","description":"רחוב:יציאה לכביש 38 עיר: מטה יהודה רציף: קומה:","name:en":"Shimshon Junction","source":"israel_gtfs","gtfs:verified":"no","highway":"bus_stop","name:he":"מחלף שמשון"}},"gtfs":{"lat":31.775704,"lon":35.004392,"tags":{"ref":"5453","name:he":"צומת שמשון","description":"רחוב:יציאה לכביש 38 עיר: מטה יהודה רציף: קומה:","name:en":"Shimshon Junction","name:ar":"مفرق شمشمون"}}}
{"ref":"54815","extra":{"discussion":null,"osmId":5210705257},"osm":{"lat":33.195377,"lon":35.777524,"tags":{"name:ar":"شارع ٢","ref":"54815","name":"شارع ٢","description":"רחוב: עיר: בוקעתא רציף: קומה:","name:en":"Road 2","source":"israel_gtfs","gtfs:verified":"no","highway":"bus_stop","name:he":"כביש 2"}},"gtfs":{"lat":33.195377,"lon":35.777524,"tags":{"ref":"54815","name:he":"כביש 2","description":"רחוב: עיר: בוקעתא רציף: קומה:","name:en":"Road 2","name:ar":"شارع 2"}}}
{"ref":"55073","extra":{"discussion":null,"osmId":1803089136},"osm":{"lat":32.6769078,"lon":35.2518622,"tags":{"name:ar":"شوشَنَت هعيمِك/ هسڤيون","ref":"55073","name":"שושנת העמקים/הסביון","description":"רחוב:שושנת העמקים 41 עיר: מגדל העמק רציף: קומה:","name:en":"Shoshanat Ha'Amakim/HaSavyon","source":"israel_gtfs","gtfs:verified":"no","highway":"bus_stop","name:he":"שושנת העמקים/הסביון"}},"gtfs":{"lat":32.676878,"lon":35.251887,"tags":{"ref":"55073","name:he":"שושנת העמקים/הסביון","description":"רחוב:שושנת העמקים 41 עיר: מגדל העמק רציף: קומה:","name:en":"Shoshanat Ha'Amakim/HaSavyon","name:ar":"شوشَنَت هعيمِك/ هسڤيون"}}}
{"ref":"55630","extra":{"discussion":null,"osmId":1803030962},"osm":{"lat":32.6809326,"lon":35.2418912,"tags":{"name:ar":"هَعَرڤا/هشيكما","ref":"55630","name":"הערבה/השיקמה","description":"רחוב:השיקמה עיר: מגדל העמק רציף: קומה:","name:en":"Ha'Arava/HaShikma","source":"israel_gtfs","gtfs:verified":"no","highway":"bus_stop","name:he":"הערבה/השיקמה"}},"gtfs":{"lat":32.680917,"lon":35.241922,"tags":{"ref":"55630","name:he":"הערבה/השיקמה","description":"רחוב:השיקמה עיר: מגדל העמק רציף: קומה:","name:en":"Ha'Arava/HaShikma","name:ar":"هَعَرڤا/هشيكما"}}}
{"ref":"55894","extra":{"discussion":null,"osmId":5210703488},"osm":{"lat":33.198124,"lon":35.777205,"tags":{"name:ar":"بقعاتا/شارع ٢ ب","ref":"55894","name":"بقعاتا/شارع ٢ ب","description":"רחוב: עיר: בוקעתא רציף: קומה:","name:en":"Buk'ata/Road 2 B","source":"israel_gtfs","gtfs:verified":"no","highway":"bus_stop","name:he":"בוקעתא/כביש 2 ב"}},"gtfs":{"lat":33.198124,"lon":35.777205,"tags":{"ref":"55894","name:he":"בוקעתא/כביש 2 ב","description":"רחוב: עיר: בוקעתא רציף: קומה:","name:en":"Buk'ata/Road 2 B","name:ar":"بقعاتا/شارع 2 ب"}}}
{"ref":"55900","extra":{"discussion":null,"osmId":5210703484},"osm":{"lat":33.196822,"lon":35.7838,"tags":{"name:ar":"بقعاتا شارع ١٤/شارع ٦","ref":"55900","name":"بقعاتا شارع ١٤/شارع ٦","description":"רחוב: עיר: בוקעתא רציף: קומה:","name:en":"Buk'ata Road 14/Road 6","source":"israel_gtfs","gtfs:verified":"no","highway":"bus_stop","name:he":"בוקעתא כביש 14/כביש 6"}},"gtfs":{"lat":33.196822,"lon":35.7838,"tags":{"ref":"55900","name:he":"בוקעתא כביש 14/כביש 6","description":"רחוב: עיר: בוקעתא רציף: קומה:","name:en":"Buk'ata Road 14/Road 6","name:ar":"بقعاتا شارع 14/شارع 6"}}}
{"ref":"55901","extra":{"discussion":null,"osmId":5210703483},"osm":{"lat":33.197847,"lon":35.78312,"tags":{"name:ar":"بقعاتا شارع ١٤/شارع ٦","ref":"55901","name":"بقعاتا شارع ١٤/شارع ٦","description":"רחוב: עיר: בוקעתא רציף: קומה:","name:en":"Buk'ata Road 14/Road 6","source":"israel_gtfs","gtfs:verified":"no","highway":"bus_stop","name:he":"בוקעתא כביש 14/כביש 6"}},"gtfs":{"lat":33.197847,"lon":35.78312,"tags":{"ref":"55901","name:he":"בוקעתא כביש 14/כביש 6","description":"רחוב: עיר: בוקעתא רציף: קומה:","name:en":"Buk'ata Road 14/Road 6","name:ar":"بقعاتا شارع 14/شارع 6"}}}
{"ref":"56855","extra":{"discussion":null,"osmId":1803095619},"osm":{"lat":32.701804,"lon":35.292274,"tags":{"name:ar":"5105/5112","ref":"56855","name":"5105/5112","description":"רחוב:5105 עיר: נצרת רציף: קומה:","name:en":"5105/5112","source":"israel_gtfs","gtfs:verified":"no","highway":"bus_stop"}},"gtfs":{"lat":32.701804,"lon":35.292274,"tags":{"ref":"56855","name:he":"5105/5112","description":"רחוב:5105 עיר: נצרת רציף: קומה:","name:en":"5105/5112","name:ar":"5105/5112"}}}
{"ref":"56859","extra":{"discussion":null,"osmId":1803095773},"osm":{"lat":32.71202,"lon":35.299426,"tags":{"name:ar":"7012/7083","ref":"56859","name":"7012/7083","description":"רחוב:7012 17 עיר: נצרת רציף: קומה:","name:en":"7012/7083","source":"israel_gtfs","gtfs:verified":"no","highway":"bus_stop"}},"gtfs":{"lat":32.71202,"lon":35.299426,"tags":{"ref":"56859","name:he":"7012/7083","description":"רחוב:7012 17 עיר: נצרת רציף: קומה:","name:en":"7012/7083","name:ar":"7012/7083"}}}
{"ref":"56860","extra":{"discussion":null,"osmId":1803095756},"osm":{"lat":32.712254,"lon":35.299184,"tags":{"name:ar":"7012/7015","ref":"56860","name":"7012/7015","description":"רחוב:7012 16 עיר: נצרת רציף: קומה:","name:en":"7012/7015","source":"israel_gtfs","gtfs:verified":"no","highway":"bus_stop"}},"gtfs":{"lat":32.712254,"lon":35.299184,"tags":{"ref":"56860","name:he":"7012/7015","description":"רחוב:7012 16 עיר: נצרת רציף: קומה:","name:en":"7012/7015","name:ar":"7012/7015"}}}
{"ref":"56862","extra":{"discussion":null,"osmId":1803095801},"osm":{"lat":32.710888,"lon":35.298305,"tags":{"name:ar":"7017/7106","ref":"56862","name":"7017/7106","description":"רחוב:7106 3 עיר: נצרת רציף: קומה:","name:en":"7017/7106","source":"israel_gtfs","gtfs:verified":"no","highway":"bus_stop"}},"gtfs":{"lat":32.710888,"lon":35.298305,"tags":{"ref":"56862","name:he":"7017/7106","description":"רחוב:7106 3 עיר: נצרת רציף: קומה:","name:en":"7017/7106","name:ar":"7017/7106"}}}
{"ref":"57874","extra":{"discussion":null,"osmId":5210702224},"osm":{"lat":32.9783552,"lon":35.6403388,"tags":{"name:ar":"معسكر هَراعم/شارع 888","ref":"57874","name":"מחנה הרעם/כביש 888","description":"רחוב:888 עיר: גולן רציף: קומה:","name:en":"HaRe'em Camp/Road 888","source":"israel_gtfs","gtfs:verified":"no","highway":"bus_stop","name:he":"מחנה הרעם/כביש 888"}},"gtfs":{"lat":32.978414,"lon":35.640208,"tags":{"ref":"57874","name:he":"מחנה הרעם/כביש 888","description":"רחוב:888 עיר: גולן רציף: קומה:","name:en":"HaRe'em Camp/Road 888","name:ar":"معسكر هَراعم/شارع 888"}}}
{"ref":"58509","extra":{"discussion":null,"osmId":1803051846},"osm":{"lat":33.203765,"lon":35.77479,"tags":{"name:ar":"شارع ٢٥ ب","ref":"58509","name":"شارع ٢٥ ب","description":"רחוב: עיר: בוקעתא רציף: קומה:","name:en":"25 B Street","source":"israel_gtfs","gtfs:verified":"no","highway":"bus_stop","name:he":"רחוב 25 ב"}},"gtfs":{"lat":33.203765,"lon":35.77479,"tags":{"ref":"58509","name:he":"רחוב 25 ב","description":"רחוב: עיר: בוקעתא רציף: קומה:","name:en":"25 B Street","name:ar":"شارع 25 ب"}}}
{"ref":"58510","extra":{"discussion":null,"osmId":1803051845},"osm":{"lat":33.203671,"lon":35.774782,"tags":{"name:ar":"شارع ٢٥ ب","ref":"58510","name":"شارع ٢٥ ب","description":"רחוב: עיר: בוקעתא רציף: קומה:","name:en":"25 B Street","source":"israel_gtfs","gtfs:verified":"no","highway":"bus_stop","name:he":"רחוב 25 ב"}},"gtfs":{"lat":33.203671,"lon":35.774782,"tags":{"ref":"58510","name:he":"רחוב 25 ב","description":"רחוב: עיר: בוקעתא רציף: קומה:","name:en":"25 B Street","name:ar":"شارع 25 ب"}}}
{"ref":"59572","extra":{"discussion":null,"osmId":1803075971},"osm":{"lat":32.611879,"lon":35.0846,"tags":{"name:ar":"مفرق رمات هشوفيت","ref":"59572","name":"צומת רמות מנשה","description":"רחוב:6954 עיר: מגידו רציף: קומה:","name:en":"Ramat HaShofet Junction","source":"israel_gtfs","gtfs:verified":"no","highway":"bus_stop","name:he":"צומת רמות מנשה","operator":"אגד"}},"gtfs":{"lat":32.611879,"lon":35.0846,"tags":{"ref":"59572","name:he":"צומת רמת השופט","description":"רחוב:6954 עיר: מגידו רציף: קומה:","name:en":"Ramat HaShofet Junction","name:ar":"مفرق رمات هشوفيت"}}}
{"ref":"59761","extra":{"discussion":null,"osmId":1803065169},"osm":{"lat":32.896502,"lon":35.364449,"tags":{"name:ar":"سلمى","ref":"59761","shelter":"yes","description":"רחוב: עיר: סלמה רציף: קומה:","name:en":"Salama","source":"israel_gtfs","gtfs:verified":"no","highway":"bus_stop","addr:city":"salama"}},"gtfs":{"lat":32.896502,"lon":35.364449,"tags":{"ref":"59761","name:he":"סלמה","description":"רחוב: עיר: סלמה רציף: קומה:","name:en":"Salama","name:ar":"سلمى"}}}
{"ref":"59777","extra":{"discussion":null,"osmId":1803048161},"osm":{"lat":32.912802,"lon":35.353779,"tags":{"name:ar":"كمانة","ref":"59777","name":"מסעף כמאנה-ג'לסה","description":"רחוב: עיר: כמאנה מזרח רציף: קומה:","name:en":"Kaamana","source":"israel_gtfs","gtfs:verified":"no","highway":"bus_stop","name:he":"מסעף כמאנה-ג'לסה"}},"gtfs":{"lat":32.912802,"lon":35.353779,"tags":{"ref":"59777","name:he":"כמאנה","description":"רחוב: עיר: כמאנה מזרח רציף: קומה:","name:en":"Kaamana","name:ar":"كمانة"}}}
{"ref":"60334","extra":{"discussion":null,"osmId":1802982251},"osm":{"lat":31.39107,"lon":34.905194,"tags":{"name:ar":"أشكولوت أ","ref":"60334","name":"'אשכולות א","description":"רחוב: עיר: אשכולות רציף: קומה:","name:en":"Eshkolot A","source":"israel_gtfs","gtfs:verified":"no","highway":"bus_stop","name:he":"'אשכולות א"}},"gtfs":{"lat":31.39107,"lon":34.905194,"tags":{"ref":"60334","name:he":"'אשכולות א","description":"רחוב: עיר: אשכולות רציף: קומה:","name:en":"Eshkolot A","name:ar":"أشكولوت أ‘"}}}
{"ref":"60597","extra":{"discussion":null,"osmId":1803047526},"osm":{"lat":31.523381,"lon":35.106677,"tags":{"name:ar":"دوار چروس","ref":"60597","description":"רחוב: עיר: הר חברון רציף: קומה:","name:en":"Gross Square","source":"israel_gtfs","gtfs:verified":"no","highway":"bus_stop"}},"gtfs":{"lat":31.523381,"lon":35.106677,"tags":{"ref":"60597","name:he":"כיכר גרוס","description":"רחוב: עיר: הר חברון רציף: קומה:","name:en":"Gross Square","name:ar":"دوار چروس"}}}
{"ref":"61242","extra":{"discussion":null,"osmId":5210700553},"osm":{"lat":32.0977033,"lon":35.2367226,"tags":{"name:ar":"نوفي نحميا","ref":"61242","name":"נופי נחמיה","description":"רחוב: עיר: רחלים רציף: קומה:","name:en":"Nofe Nehemya","source":"israel_gtfs","gtfs:verified":"no","highway":"bus_stop","name:he":"נופי נחמיה"}},"gtfs":{"lat":32.097664,"lon":35.236585,"tags":{"ref":"61242","name:he":"נופי נחמיה","description":"רחוב: עיר: רחלים רציף: קומה:","name:en":"Nofe Nehemya","name:ar":"نوفي نحميا"}}}
{"ref":"63253","extra":{"discussion":null,"osmId":5210698010},"osm":{"lat":32.1014543,"lon":35.1962462,"tags":{"name:ar":"جادة يروشلايم/شاعَر هَچاي","ref":"63253","name":"שד. ירושלים/שער הגיא","description":"רחוב:שדרות ירושלים עיר: אריאל רציף: קומה:","name:en":"Yerushalayim Blvd/Sha'ar HaGay","source":"israel_gtfs","gtfs:verified":"no","highway":"bus_stop","name:he":"שד. ירושלים/שער הגיא"}},"gtfs":{"lat":32.101417,"lon":35.196188,"tags":{"ref":"63253","name:he":"שד. ירושלים/שער הגיא","description":"רחוב:שדרות ירושלים עיר: אריאל רציף: קומה:","name:en":"Yerushalayim Blvd/Sha'ar HaGay","name:ar":"جادة يروشلايم/شاعَر هَچاي"}}}
{"ref":"65346","extra":{"discussion":null,"osmId":5210694941},"osm":{"lat":31.7168288,"lon":35.1193986,"tags":{"name:ar":"حاجز بيتار/شارع 375","ref":"65346","name":"מחסום ביתר/כביש 375","description":"רחוב:375 עיר: מטה יהודה רציף: קומה:","name:en":"Beitar Checkpoint/Road 375","source":"israel_gtfs","gtfs:verified":"no","highway":"bus_stop","name:he":"מחסום ביתר/כביש 375"}},"gtfs":{"lat":31.71679,"lon":35.119361,"tags":{"ref":"65346","name:he":"מחסום ביתר/כביש 375","description":"רחוב:375 עיר: מטה יהודה רציף: קומה:","name:en":"Beitar Checkpoint/Road 375","name:ar":"حاجز بيتار/شارع 375"}}}
{"ref":"699","extra":{"discussion":null,"osmId":1803095300},"osm":{"lat":31.859027,"lon":35.215442,"tags":{"name:ar":"191","ref":"699","name":"191","description":"רחוב:עטרות עיר: ירושלים רציף: קומה:","name:en":"191","source":"israel_gtfs","gtfs:verified":"no","highway":"bus_stop"}},"gtfs":{"lat":31.859027,"lon":35.215442,"tags":{"ref":"699","name:he":"191","description":"רחוב:עטרות עיר: ירושלים רציף: קומה:","name:en":"191","name:ar":"191"}}}
{"ref":"748","extra":{"discussion":null,"osmId":1803003060},"osm":{"lat":31.756494,"lon":35.242656,"tags":{"name:ar":"جبل المكبر","ref":"748","name":"ג'אבל מוכאבר","description":"רחוב:דרך ג'בל מוכבר עיר: ירושלים רציף: קומה:","name:en":"Jabel Mukaber","source":"israel_gtfs","gtfs:verified":"no","highway":"bus_stop","name:he":"ג'אבל מוכאבר"}},"gtfs":{"lat":31.756494,"lon":35.242656,"tags":{"ref":"748","name:he":"ג'אבל מוקבר","description":"רחוב:דרך ג'בל מוכבר עיר: ירושלים רציף: קומה:","name:en":"Jabel Mukaber","name:ar":"جبل المكبر"}}}
{"ref":"809","extra":{"discussion":null,"osmId":1803003057},"osm":{"lat":31.753585,"lon":35.241685,"tags":{"name:ar":"جبل المكبر 6","ref":"809","name":"ג'אבל מוכאבר 6","description":"רחוב:זכריהו אוריאלי עיר: ירושלים רציף: קומה:","name:en":"Jabel Mukaber","source":"israel_gtfs","gtfs:verified":"no","highway":"bus_stop","name:he":"ג'אבל מוכאבר 6"}},"gtfs":{"lat":31.753585,"lon":35.241685,"tags":{"ref":"809","name:he":"ג'אבל מוקבר 6","description":"רחוב:זכריהו אוריאלי עיר: ירושלים רציף: קומה:","name:en":"Jabel Mukaber","name:ar":"جبل المكبر 6"}}}
{"ref":"821","extra":{"discussion":null,"osmId":1803095523},"osm":{"lat":31.753102,"lon":35.242188,"tags":{"name:ar":"37","ref":"821","name":"37","description":"רחוב:זכריהו אוריאלי עיר: ירושלים רציף: קומה:","name:en":"37","source":"israel_gtfs","gtfs:verified":"no","highway":"bus_stop"}},"gtfs":{"lat":31.753102,"lon":35.242188,"tags":{"ref":"821","name:he":"37","description":"רחוב:זכריהו אוריאלי עיר: ירושלים רציף: קומה:","name:en":"37","name:ar":"37"}}}
{"ref":"954","extra":{"discussion":null,"osmId":1803089156},"osm":{"lat":31.76517,"lon":35.194354,"tags":{"ref":"954","name":"שח''ל/הלר","description":"רחוב:שח''ל 66 עיר: ירושלים רציף: קומה:","name:en":"Shakhal/Heler","source":"israel_gtfs","gtfs:verified":"no","highway":"bus_stop","name:he":"שח''ל/הלר","route_ref":"973"}},"gtfs":{"lat":31.76517,"lon":35.194354,"tags":{"ref":"954","name:he":"שח''ל/הלר","description":"רחוב:שח''ל 66 עיר: ירושלים רציף: קומה:"}}}
